 2016  1 1 0019 40.0 L  35.822  51.993  2.8  SYN 15 0.1                        1
 GAP= 68        0.20       0.4     0.4  0.8 -0.1912E-01  0.1741E-01 -0.1783E+00E
 STAT SP IPHASW D HRMN SECON CODA AMPLIT PERI AZIMU VELO AIN AR TRES W  DIS CAZ7
 R6       S   2   0019 44.82                             103    0.05 5 12.0 3164
 R7       S   2   0019 45.16                             102    0.03 5 13.0  484
 R2       P   0 U 0019 43.62                             100    0.0110 15.9 2124
 R3       P   0 D 0019 43.83                             100    0.0510 16.6 1444
 R5       P   0 D 0019 46.00                              60    0.0410 27.8 2884
 R5       S   2   0019 50.14                              60   -0.15 5 27.8 2884
 R8       P   0 U 0019 46.23                              60    0.0310 29.1  734
 R8       S   2   0019 50.60                              60   -0.11 5 29.1  734
 R1       P   0 U 0019 46.32                              60   -0.0110 29.7 2434
 R1       S   2   0019 50.91                              60   -0.01 5 29.7 2434
 R4       S   2   0019 51.31                              60   -0.01 5 30.9 1164
 R10      P   0 U 0019 46.75                              60    0.0010 32.0 3454
 R10      S   2   0019 51.57                              60   -0.08 5 32.0 3454
 R11      P   0 U 0019 46.76                              60   -0.0710 32.3  174
 R9       P   0 U 0019 48.40                              60   -0.0310 40.6 3204
 R9       S   2   0019 54.54                              60   -0.02 5 40.6 3204
 R12      P   0 U 0019 48.52                              60   -0.0610 41.5  424
 R12      S   2   0019 54.88                              60    0.06 5 41.5  424
 R14      S   2   0019 58.67                              51    0.18 5 53.7 3514
 R15      P   0 U 0019 50.72                              51   -0.0110 53.9  104
 R15      S   2   0019 58.68                              51    0.14 5 53.9  104
 R16      S   2   0020  0.42                              46    0.12 5 59.8  274
                                                                                
 2016  1 1 0020  0.1 L  36.097  52.080 19.8  SYN 15 0.1                        1
 GAP= 77        0.20       0.5     0.7  1.1  0.3440E-01  0.1976E+00  0.1794E+00E
 STAT SP IPHASW D HRMN SECON CODA AMPLIT PERI AZIMU VELO AIN AR TRES W  DIS CAZ7
 R11      P   0 D 0020  3.68                             174    0.0410 1.84  804
 R11      S   2   0020  6.14                             174   -0.11 5 1.84  804
 R10      S   2   0020  7.89                             131   -0.07 5 16.2 2714
 R12      S   2   0020  8.67                             124   -0.02 5 19.8  894
 R7       P   0 U 0020  5.29                             120   -0.0310 21.9 1754
 R7       S   2   0020  9.26                             120    0.11 5 21.9 1754
 R6       P   0 U 0020  6.01                             111   -0.0110 27.2 2174
 R14      P   0 D 0020  6.06                             111   -0.0310 27.7 3244
 R14      S   2   0020 10.62                             111    0.12 5 27.7 3244
 R8       S   2   0020 11.10                             108    0.16 5 29.5 1384
 R16      P   0 U 0020  6.38                             108   -0.0310 30.0  414
 R16      S   2   0020 11.05                             108    0.01 5 30.0  414
 R9       P   0 D 0020  7.09                             103    0.0710 34.2 2714
 R5       P   0 U 0020  7.87                              98   -0.0710 40.6 2384
 R5       S   2   0020 13.78                              98    0.09 5 40.6 2384
 R13      S   2   0020 13.80                              98    0.04 5 40.9 3034
 R3       P   0 U 0020  8.39                              97   -0.0610 44.1 1784
 R3       S   2   0020 14.60                              97    0.04 5 44.1 1784
 R2       P   0 U 0020  8.87                              96    0.0210 47.0 2004
 R2       S   2   0020 15.17                              96   -0.10 5 47.0 2004
 R4       P   0 D 0020  9.11                              95    0.0410 48.3 1564
 R4       S   2   0020 15.60                              95   -0.04 5 48.3 1564
 R1       P   0 U 0020 10.14                              94   -0.0210 55.8 2184
 R1       S   2   0020 17.61                              94    0.07 5 55.8 2184
                                                                                
 2016  1 1 0020 20.0 L  35.881  52.119  6.3  SYN 12 0.1                        1
 GAP=107        0.21       0.4     0.7  0.7  0.7921E-02  0.4808E-01 -0.7852E-01E
 STAT SP IPHASW D HRMN SECON CODA AMPLIT PERI AZIMU VELO AIN AR TRES W  DIS CAZ7
 R7       P   0 D 0020 21.48                             154    0.0110 2.71 3224
 R7       S   2   0020 22.42                             154   -0.10 5 2.71 3224
 R6       S   2   0020 27.64                             100    0.19 5 19.8 2764
 R3       P   0 U 0020 24.35                             100   -0.0310 20.1 1854
 R3       S   2   0020 27.58                             100    0.02 5 20.1 1854
 R11      P   0 D 0020 25.22                              97    0.0310 24.4 3564
 R11      S   2   0020 28.92                              97   -0.04 5 24.4 3564
 R4       P   0 D 0020 25.54                              97    0.0610 25.9 1414
 R4       S   2   0020 29.48                              97    0.02 5 25.9 1414
 R2       P   0 U 0020 25.83                              96   -0.0710 28.1 2254
 R2       S   2   0020 30.21                              96    0.02 5 28.1 2254
 R12      P   0 U 0020 26.11                              64   -0.0110 29.3  344
 R10      P   0 D 0020 26.44                              64   -0.0210 31.3 3214
 R5       P   0 D 0020 27.59                              64   -0.0110 37.8 2734
 R5       S   2   0020 33.07                              64   -0.05 5 37.8 2734
 R9       P   0 D 0020 28.86                              64    0.0410 44.9 3034
 R16      S   2   0020 36.48                              64   -0.06 5 49.3  194
 R14      P   0 U 0020 29.74                              64   -0.0410 50.5 3374
 R14      S   2   0020 37.02                              64    0.12 5 50.5 3374
                                                                                
 2016  1 1 0020 40.0 L  36.162  51.908 17.7  SYN 16 0.1                        1
 GAP= 60        0.19       0.6     0.6  0.8 -0.1053E+00 -0.1424E+00  0.2682E+00E
 STAT SP IPHASW D HRMN SECON CODA AMPLIT PERI AZIMU VELO AIN AR TRES W  DIS CAZ7
 R10      S   2   0020 46.01                             156   -0.03 5 6.91 1864
 R14      P   0 D 0020 44.26                             133   -0.0510 15.3 3574
 R14      S   2   0020 47.50                             133    0.07 5 15.3 3574
 R11      S   2   0020 48.08                             126   -0.05 5 18.6 1124
 R9       P   0 U 0020 44.84                             124   -0.0510 19.9 2504
 R9       S   2   0020 48.51                             124    0.08 5 19.9 2504
 R15      P   0 U 0020 45.26                             119   -0.0410 23.1  484
 R13      S   2   0020 49.51                             117    0.09 5 24.1 3094
 R6       P   0 U 0020 46.17                             112    0.0110 29.1 1814
 R7       P   0 D 0020 46.86                             108   -0.0110 33.8 1494
 R7       S   2   0020 51.88                             108    0.02 5 33.8 1494
 R5       P   0 U 0020 46.96                             107   -0.0310 34.6 2134
 R5       S   2   0020 52.16                             107    0.09 5 34.6 2134
 R12      P   0 D 0020 47.22                             106    0.0310 36.0 1014
 R12      S   2   0020 52.52                             106    0.10 5 36.0 1014
 R16      P   0 U 0020 47.60                             105    0.0210 38.4  664
 R16      S   2   0020 53.20                             105    0.10 5 38.4  664
 R8       P   0 D 0020 48.66                              68    0.0010 45.8 1294
 R8       S   2   0020 54.86                              68   -0.10 5 45.8 1294
 R2       P   0 D 0020 49.35                              68   -0.1110 51.3 1814
 R2       S   2   0020 56.49                              68    0.15 5 51.3 1814
 R3       P   0 D 0020 49.94                              68    0.0510 54.1 1614
 R3       S   2   0020 56.97                              68   -0.12 5 54.1 1614
 R1       P   0 U 0020 50.04                              68    0.0810 54.6 2004
 R1       S   2   0020 57.22                              68    0.02 5 54.6 2004
 R4       P   0 D 0020 51.10                              68    0.01 9 62.3 1454
                                                                                
 2016  1 1 0021  0.0 L  35.989  52.166 21.2  SYN 16 0.1                        1
 GAP= 85        0.19       0.4     0.7  1.1 -0.7829E-02  0.2284E+00 -0.1103E-01E
 STAT SP IPHASW D HRMN SECON CODA AMPLIT PERI AZIMU VELO AIN AR TRES W  DIS CAZ7
 R7       P   0 U 0021  4.33                             146    0.0410 11.6 2114
 R7       S   2   0021  7.49                             146    0.08 5 11.6 2114
 R11      P   0 D 0021  4.48                             141    0.0010 13.6 3344
 R11      S   2   0021  7.67                             141   -0.07 5 13.6 3344
 R8       S   2   0021  8.00                             136   -0.08 5 15.6 1294
 R12      P   0 D 0021  4.84                             133    0.0110 17.2  444
 R12      S   2   0021  8.49                             133    0.14 5 17.2  444
 R6       S   2   0021 10.06                             118   -0.12 5 26.0 2484
 R10      P   0 D 0021  5.98                             116   -0.0410 26.9 2974
 R10      S   2   0021 10.39                             116   -0.01 5 26.9 2974
 R3       P   0 U 0021  6.76                             109   -0.0410 32.7 1914
 R3       S   2   0021 11.81                             109    0.05 5 32.7 1914
 R4       P   0 D 0021  6.94                             108   -0.0910 34.3 1594
 R4       S   2   0021 12.25                             108    0.10 5 34.3 1594
 R15      P   0 D 0021  7.08                             107   -0.0310 35.0 3504
 R15      S   2   0021 12.22                             107   -0.08 5 35.0 3504
 R16      P   0 U 0021  7.34                             106    0.0010 36.5  194
 R16      S   2   0021 12.68                             106   -0.01 5 36.5  194
 R2       P   0 U 0021  7.95                             103    0.1010 40.1 2174
 R2       S   2   0021 13.66                             103    0.10 5 40.1 2174
 R14      P   0 D 0021  8.16                             102    0.0410 42.0 3254
 R14      S   2   0021 14.16                             102    0.12 5 42.0 3254
 R5       S   2   0021 14.23                             101   -0.12 5 43.2 2574
 R9       P   0 D 0021  8.39                             101    0.0010 43.8 2864
 R9       S   2   0021 14.50                             101    0.00 5 43.8 2864
 R1       P   0 U 0021  9.69                              97   -0.0310 53.0 2334
 R1       S   2   0021 16.76                              97   -0.04 5 53.0 2334
 R13      P   0 D 0021  9.91                              97    0.0010 54.3 3104
 R13      S   2   0021 17.23                              97    0.10 5 54.3 3104
                                                                                
 2016  1 1 0021 20.0 L  35.978  51.810  9.2  SYN 16 0.1                        1
 GAP= 95        0.18       0.3     0.6  0.9  0.2576E-01 -0.2847E+00 -0.6914E-01E
 STAT SP IPHASW D HRMN SECON CODA AMPLIT PERI AZIMU VELO AIN AR TRES W  DIS CAZ7
 R6       P   0 D 0021 23.03                             116   -0.0210 11.9 1374
 R6       S   2   0021 25.26                             116    0.01 5 11.9 1374
 R5       P   0 U 0021 23.24                             112   -0.0210 13.1 2294
 R5       S   2   0021 25.51                             112   -0.10 5 13.1 2294
 R10      P   0 U 0021 23.67                             106   -0.0210 15.8  314
 R9       P   0 D 0021 23.96                             104    0.0910 16.8 3244
 R9       S   2   0021 26.72                             104    0.05 5 16.8 3244
 R7       P   0 D 0021 25.76                              95    0.0710 27.6 1084
 R7       S   2   0021 29.82                              95    0.00 5 27.6 1084
 R11      P   0 U 0021 25.93                              94   -0.1010 29.5  634
 R11      S   2   0021 30.32                              94   -0.08 5 29.5  634
 R2       P   0 D 0021 26.40                              94   -0.0310 31.9 1654
 R2       S   2   0021 31.21                              94    0.11 5 31.9 1654
 R1       P   0 U 0021 26.45                              94   -0.0710 32.4 1984
 R1       S   2   0021 31.34                              94    0.08 5 32.4 1984
 R14      P   0 U 0021 27.28                              93    0.0210 36.7  134
 R14      S   2   0021 32.65                              93    0.11 5 36.7  134
 R13      P   0 D 0021 27.32                              93   -0.0210 37.1 3454
 R13      S   2   0021 32.64                              93   -0.03 5 37.1 3454
 R3       P   0 D 0021 27.96                              93    0.0410 40.5 1404
 R3       S   2   0021 33.75                              93    0.08 5 40.5 1404
 R15      S   2   0021 34.73                              67   -0.06 5 44.3  364
 R8       P   0 D 0021 28.72                              67    0.0210 45.1 1014
 R8       S   2   0021 35.04                              67    0.01 5 45.1 1014
 R12      P   0 U 0021 28.91                              67    0.0410 46.2  734
 R12      S   2   0021 35.33                              67    0.01 5 46.2  734
 R4       P   0 D 0021 30.10                              67   -0.0110 54.0 1254
 R16      P   0 U 0021 30.54                              67   -0.0210 56.8  514
 R16      S   2   0021 38.16                              67   -0.09 5 56.8  514
                                                                                
 2016  1 1 0021 40.0 L  35.855  51.949 11.3  SYN 13 0.1                        1
 GAP= 86        0.21       0.5     0.7  0.9 -0.9683E-02 -0.1022E+00 -0.2084E+00E
 STAT SP IPHASW D HRMN SECON CODA AMPLIT PERI AZIMU VELO AIN AR TRES W  DIS CAZ7
 R6       S   2   0021 44.56                             145    0.08 5 6.61 3194
 R7       P   0 U 0021 43.56                             119   -0.0710 14.5  704
 R2       P   0 U 0021 44.13                             113    0.0010 17.8 1944
 R2       S   2   0021 47.13                             113    0.01 5 17.8 1944
 R3       S   2   0021 48.28                             107   -0.04 5 22.0 1414
 R1       P   0 U 0021 45.87                             101   -0.0110 28.3 2334
 R11      P   0 U 0021 46.17                             100   -0.0610 30.4  274
 R11      S   2   0021 50.89                             100    0.14 5 30.4  274
 R8       P   0 U 0021 46.58                              67    0.0710 32.1  814
 R8       S   2   0021 51.28                              67    0.05 5 32.1  814
 R9       P   0 D 0021 47.00                              67   -0.0110 35.2 3214
 R9       S   2   0021 52.09                              67   -0.01 5 35.2 3214
 R4       S   2   0021 52.43                              67    0.09 5 36.1 1184
 R12      P   0 U 0021 48.04                              67    0.0210 41.7  494
 R12      S   2   0021 53.68                              67   -0.18 5 41.7  494
 R14      P   0 U 0021 49.27                              67    0.0010 49.5 3554
 R14      S   2   0021 55.99                              67   -0.02 5 49.5 3554
 R15      P   0 U 0021 49.52                              67   -0.0110 51.2  154
 R15      S   2   0021 56.60                              67    0.15 5 51.2  154
 R16      S   2   0021 58.50                              67   -0.01 5 58.6  334
                                                                                
 2016  1 1 0022  0.1 L  36.123  51.880 24.5  SYN 15 0.1                        1
 GAP= 60        0.20       0.6     0.7  1.5 -0.1704E-01 -0.1943E+00  0.3844E+00E
 STAT SP IPHASW D HRMN SECON CODA AMPLIT PERI AZIMU VELO AIN AR TRES W  DIS CAZ7
 R9       P   0 U 0022  5.12                             141   -0.0410 16.4 2614
 R9       S   2   0022  8.78                             141   -0.10 5 16.4 2614
 R14      S   2   0022  9.47                             134    0.03 5 19.7   54
 R11      P   0 U 0022  5.49                             134   -0.0210 20.0  974
 R11      S   2   0022  9.62                             134    0.13 5 20.0  974
 R6       P   0 U 0022  5.98                             127   -0.0610 24.8 1764
 R6       S   2   0022 10.39                             127   -0.02 5 24.8 1764
 R13      P   0 D 0022  6.16                             126    0.0410 25.4 3214
 R13      S   2   0022 10.50                             126   -0.05 5 25.4 3214
 R15      P   0 D 0022  6.38                             122   -0.0410 27.9  454
 R5       P   0 U 0022  6.65                             120    0.0210 29.5 2134
 R5       S   2   0022 11.54                             120    0.11 5 29.5 2134
 R7       P   0 D 0022  6.85                             118   -0.0510 31.7 1414
 R7       S   2   0022 11.83                             118   -0.07 5 31.7 1414
 R12      S   2   0022 13.45                             112    0.12 5 37.9  944
 R16      S   2   0022 14.56                             109    0.10 5 42.6  624
 R8       S   2   0022 15.20                             107    0.10 5 45.3 1234
 R2       P   0 U 0022  8.96                             106   -0.0210 46.9 1784
 R2       S   2   0022 15.61                             106    0.11 5 46.9 1784
 R1       P   0 U 0022  9.47                             105    0.1010 49.6 1994
 R1       S   2   0022 16.24                             105    0.07 5 49.6 1994
 R3       P   0 D 0022  9.57                             104    0.0110 51.0 1574
 R3       S   2   0022 16.41                             104   -0.09 5 51.0 1574
 R4       P   0 D 0022 10.90                             101   -0.01 9 60.3 1414
 R4       S   2   0022 18.64                             101   -0.19 5 60.3 1414
                                                                                
