 2016  1 1 0014 20.0 L  35.991  52.149 10.2  SYN 16 0.1                        1
 GAP= 78        0.20       0.4     0.6  0.9 -0.1480E-01  0.2958E+00 -0.3850E-01E
 STAT SP IPHASW D HRMN SECON CODA AMPLIT PERI AZIMU VELO AIN AR TRES W  DIS CAZ7
 R7       P   0 U 0014 22.99                             124   -0.0110 11.0 2044
 R7       S   2   0014 25.08                             124   -0.09 5 11.0 2044
 R11      P   0 D 0014 23.26                             119   -0.0210 12.9 3404
 R8       P   0 D 0014 23.94                             109    0.0110 17.0 1274
 R8       S   2   0014 26.73                             109   -0.05 5 17.0 1274
 R12      P   0 U 0014 24.16                             107    0.0410 18.2  484
 R12      S   2   0014 27.25                             107    0.14 5 18.2  484
 R6       P   0 U 0014 25.23                             100    0.0310 24.6 2464
 R10      P   0 D 0014 25.34                              99    0.0010 25.5 2984
 R10      S   2   0014 29.34                              99    0.12 5 25.5 2984
 R3       P   0 U 0014 26.54                              96   -0.0310 32.6 1884
 R15      P   0 D 0014 26.85                              96   -0.0510 34.5 3534
 R15      S   2   0014 32.02                              96    0.11 5 34.5 3534
 R4       P   0 D 0014 26.97                              96   -0.0210 35.1 1574
 R16      P   0 U 0014 27.20                              95   -0.1010 36.9  224
 R16      S   2   0014 32.53                              95   -0.09 5 36.9  224
 R2       P   0 U 0014 27.81                              67    0.1010 39.3 2154
 R14      P   0 D 0014 28.03                              67    0.0610 40.9 3274
 R14      S   2   0014 33.71                              67   -0.06 5 40.9 3274
 R5       P   0 U 0014 28.07                              67   -0.0310 41.7 2564
 R5       S   2   0014 34.02                              67    0.03 5 41.7 2564
 R9       P   0 D 0014 28.17                              67   -0.0110 42.2 2874
 R1       P   0 U 0014 29.67                              67   -0.0310 51.8 2324
 R13      P   0 D 0014 29.95                              67    0.0710 53.0 3104
 R13      S   2   0014 36.99                              67   -0.09 5 53.0 3104
                                                                                
 2016  1 1 0014 40.0 L  36.094  51.876  6.4  SYN 15 0.1                        1
 GAP= 56        0.20       0.4     0.6  0.7 -0.4576E-01 -0.2658E+00  0.8258E-01E
 STAT SP IPHASW D HRMN SECON CODA AMPLIT PERI AZIMU VELO AIN AR TRES W  DIS CAZ7
 R10      P   0 D 0014 41.48                             159    0.0410 2.26  734
 R9       P   0 D 0014 43.67                             104    0.0810 15.9 2724
 R9       S   2   0014 46.14                             104   -0.05 5 15.9 2724
 R6       P   0 D 0014 44.57                              99   -0.0910 21.6 1744
 R6       S   2   0014 48.19                              99    0.15 5 21.6 1744
 R14      P   0 U 0014 44.90                              98   -0.0210 22.9   54
 R14      S   2   0014 48.54                              98    0.05 5 22.9   54
 R5       S   2   0014 49.59                              97   -0.15 5 26.7 2164
 R13      S   2   0014 49.96                              96   -0.13 5 27.8 3254
 R7       P   0 D 0014 46.13                              64   -0.0110 29.5 1374
 R7       S   2   0014 50.65                              64    0.04 5 29.5 1374
 R15      P   0 U 0014 46.33                              64    0.0210 30.5  414
 R15      S   2   0014 51.03                              64    0.14 5 30.5  414
 R12      P   0 U 0014 47.59                              64   -0.0510 38.2  894
 R12      S   2   0014 53.31                              64    0.12 5 38.2  894
 R2       P   0 D 0014 48.65                              64    0.0510 43.8 1774
 R2       S   2   0014 54.97                              64    0.11 5 43.8 1774
 R8       P   0 D 0014 48.60                              64   -0.0310 43.9 1194
 R8       S   2   0014 54.99                              64    0.08 5 43.9 1194
 R16      P   0 U 0014 48.72                              64   -0.0110 44.4  594
 R16      S   2   0014 54.98                              64   -0.10 5 44.4  594
 R1       S   2   0014 55.76                              64    0.06 5 46.5 2004
 R3       P   0 D 0014 49.33                              64   -0.0410 48.2 1554
 R3       S   2   0014 56.24                              64    0.05 5 48.2 1554
 R4       P   0 D 0014 50.97                              56   -0.05 9 58.1 1394
 R4       S   2   0014 58.99                              56   -0.05 5 58.1 1394
                                                                                
 2016  1 1 0015  0.0 L  35.942  52.074 10.6  SYN 15 0.1                        1
 GAP= 54        0.20       0.4     0.5  0.8 -0.7307E-02  0.9786E-01 -0.1543E+00E
 STAT SP IPHASW D HRMN SECON CODA AMPLIT PERI AZIMU VELO AIN AR TRES W  DIS CAZ7
 R7       P   0 U 0015  2.37                             149    0.0010 5.26 1534
 R7       S   2   0015  4.03                             149   -0.04 5 5.26 1534
 R6       P   0 U 0015  3.89                             112    0.0410 16.3 2534
 R11      P   0 D 0015  4.06                             110   -0.0110 17.7   84
 R11      S   2   0015  6.89                             110   -0.13 5 17.7   84
 R8       P   0 D 0015  4.57                             105   -0.0410 21.0 1034
 R8       S   2   0015  7.83                             105   -0.13 5 21.0 1034
 R10      P   0 D 0015  5.10                             102    0.0810 23.5 3184
 R10      S   2   0015  8.74                             102    0.07 5 23.5 3184
 R12      P   0 U 0015  5.69                             100    0.0910 26.9  494
 R12      S   2   0015  9.75                             100    0.09 5 26.9  494
 R3       P   0 U 0015  5.62                             100   -0.0110 27.0 1754
 R2       P   0 U 0015  6.31                              98   -0.0110 31.1 2104
 R2       S   2   0015 10.96                              98    0.04 5 31.1 2104
 R4       P   0 D 0015  6.80                              97    0.0110 33.8 1434
 R4       S   2   0015 11.77                              97    0.05 5 33.8 1434
 R5       P   0 U 0015  6.73                              97   -0.1010 34.0 2624
 R5       S   2   0015 11.91                              97    0.11 5 34.0 2624
 R9       P   0 D 0015  7.47                              67   -0.0210 37.9 2984
 R15      P   0 U 0015  7.79                              67    0.0310 39.8   34
 R15      S   2   0015 13.30                              67   -0.10 5 39.8   34
 R14      P   0 U 0015  8.16                              67   -0.0710 42.6 3394
 R14      S   2   0015 14.30                              67    0.09 5 42.6 3394
 R16      S   2   0015 14.81                              67    0.06 5 44.6  274
 R13      P   0 D 0015  9.68                              67   -0.0410 52.0 3204
 R13      S   2   0015 16.86                              67    0.08 5 52.0 3204
                                                                                
 2016  1 1 0015 20.0 L  36.025  52.082 14.4  SYN 16 0.1                        1
 GAP= 58        0.19       0.4     0.6  1.4  0.3749E-02  0.4254E-01  0.6206E-03E
 STAT SP IPHASW D HRMN SECON CODA AMPLIT PERI AZIMU VELO AIN AR TRES W  DIS CAZ7
 R11      S   2   0015 25.48                             144   -0.02 5 8.50  114
 R7       S   2   0015 26.60                             127    0.06 5 13.9 1734
 R10      S   2   0015 27.65                             116    0.06 5 18.4 2974
 R12      S   2   0015 28.13                             111   -0.18 5 21.3  674
 R6       P   0 U 0015 24.80                             111   -0.0510 21.5 2304
 R6       S   2   0015 28.40                             111    0.04 5 21.5 2304
 R8       P   0 D 0015 25.20                             107   -0.0310 24.0 1254
 R15      P   0 D 0015 26.20                             101   -0.0310 30.6   34
 R15      S   2   0015 30.78                             101    0.01 5 30.6   34
 R14      P   0 D 0015 26.96                              98    0.0810 34.7 3324
 R14      S   2   0015 31.83                              98   -0.06 5 34.7 3324
 R9       S   2   0015 31.97                              98   -0.15 5 35.4 2844
 R3       P   0 U 0015 27.11                              98    0.0110 36.1 1774
 R3       S   2   0015 32.25                              98   -0.02 5 36.1 1774
 R16      P   0 U 0015 27.13                              98   -0.0110 36.3  334
 R16      S   2   0015 32.44                              98    0.11 5 36.3  334
 R5       P   0 U 0015 27.25                              97   -0.0310 37.2 2484
 R5       S   2   0015 32.66                              97    0.09 5 37.2 2484
 R2       S   2   0015 33.22                              97    0.00 5 39.6 2054
 R4       P   0 D 0015 27.94                              96    0.0510 41.0 1514
 R4       S   2   0015 33.72                              96    0.09 5 41.0 1514
 R13      P   0 D 0015 28.68                              95    0.0110 46.0 3124
 R13      S   2   0015 35.08                              95    0.10 5 46.0 3124
 R1       S   2   0015 35.96                              94   -0.09 5 49.9 2244
                                                                                
 2016  1 1 0015 40.0 L  35.818  52.170 17.8  SYN 15 0.1                        1
 GAP= 86        0.19       0.6     0.8  0.7 -0.7583E-01  0.3223E+00 -0.1324E+00E
 STAT SP IPHASW D HRMN SECON CODA AMPLIT PERI AZIMU VELO AIN AR TRES W  DIS CAZ7
 R7       P   0 D 0015 43.88                             143    0.0010 11.1 3264
 R7       S   2   0015 46.65                             143   -0.03 5 11.1 3264
 R3       S   2   0015 47.38                             135    0.08 5 14.5 2064
 R8       P   0 D 0015 44.27                             134   -0.0210 14.9  524
 R8       S   2   0015 47.55                             134    0.16 5 14.9  524
 R4       P   0 U 0015 44.59                             128   -0.0210 17.6 1384
 R4       S   2   0015 47.92                             128   -0.02 5 17.6 1384
 R6       S   2   0015 49.75                             115   -0.14 5 26.0 2914
 R2       S   2   0015 50.29                             114   -0.01 5 27.6 2424
 R11      P   0 D 0015 46.67                             110    0.0510 31.9 3494
 R11      S   2   0015 51.40                             110   -0.02 5 31.9 3494
 R10      P   0 D 0015 47.72                              68   -0.0410 39.7 3224
 R5       P   0 D 0015 48.33                              68    0.0110 43.4 2824
 R5       S   2   0015 54.45                              68    0.09 5 43.4 2824
 R1       P   0 U 0015 48.47                              68    0.0010 44.4 2534
 R1       S   2   0015 54.66                              68    0.04 5 44.4 2534
 R9       P   0 D 0015 49.76                              68    0.0610 52.7 3074
 R9       S   2   0015 56.79                              68    0.05 5 52.7 3074
 R15      S   2   0015 57.09                              68    0.08 5 53.9 3534
 R16      S   2   0015 57.24                              68   -0.02 5 54.8  124
 R14      P   0 D 0015 50.50                              68   -0.08 9 58.8 3364
 R14      S   2   0015 58.32                              68    0.05 5 58.8 3364
 R13      P   0 D 0015 51.94                              68   -0.03 9 68.2 3224
                                                                                
 2016  1 1 0016  0.0 L  36.056  51.815 15.7  SYN 16 0.1                        1
 GAP= 84        0.19       0.4     0.6  0.9 -0.2954E-01 -0.1805E+00  0.6458E-01E
 STAT SP IPHASW D HRMN SECON CODA AMPLIT PERI AZIMU VELO AIN AR TRES W  DIS CAZ7
 R10      P   0 D 0016  3.39                             145   -0.0110 9.06  574
 R10      S   2   0016  5.90                             145    0.04 5 9.06  574
 R9       S   2   0016  6.19                             137   -0.12 5 11.5 2954
 R6       P   0 U 0016  4.53                             120   -0.0310 18.9 1564
 R6       S   2   0016  7.89                             120    0.02 5 18.9 1564
 R5       P   0 U 0016  4.72                             118   -0.0310 20.2 2114
 R5       S   2   0016  8.28                             118    0.08 5 20.2 2114
 R11      P   0 U 0016  5.62                             109    0.0010 26.1  794
 R11      S   2   0016  9.57                             109   -0.12 5 26.1  794
 R14      P   0 D 0016  6.02                             107    0.0910 28.1  164
 R14      S   2   0016 10.12                             107   -0.11 5 28.1  164
 R13      P   0 D 0016  6.06                             106    0.0010 29.0 3394
 R13      S   2   0016 10.58                             106    0.12 5 29.0 3394
 R7       P   0 D 0016  6.41                             105    0.0710 30.9 1244
 R7       S   2   0016 11.08                             105    0.13 5 30.9 1244
 R15      P   0 U 0016  7.28                             101   -0.0410 37.3  434
 R15      S   2   0016 12.62                             101   -0.03 5 37.3  434
 R2       S   2   0016 13.57                              99    0.13 5 40.2 1694
 R1       P   0 U 0016  7.86                              99   -0.0310 40.8 1954
 R1       S   2   0016 13.62                              99    0.00 5 40.8 1954
 R12      P   0 U 0016  8.37                              98    0.0110 43.9  834
 R12      S   2   0016 14.41                              98   -0.03 5 43.9  834
 R8       P   0 D 0016  8.75                              97   -0.1110 47.0 1114
 R8       S   2   0016 15.29                              97   -0.01 5 47.0 1114
 R3       P   0 D 0016  8.93                              97    0.0610 47.1 1474
 R3       S   2   0016 15.29                              97   -0.04 5 47.1 1474
 R16      P   0 U 0016  9.56                              96    0.0210 51.3  584
 R16      S   2   0016 16.57                              96    0.09 5 51.3  584
 R4       P   0 D 0016 10.68                              68   -0.04 9 58.9 1324
 R4       S   2   0016 18.54                              68    0.02 5 58.9 1324
                                                                                
 2016  1 1 0016 20.0 L  36.072  52.058 16.7  SYN 16 0.1                        1
 GAP= 49        0.19       0.4     0.5  1.0  0.1907E-01  0.1026E+00  0.1158E+00E
 STAT SP IPHASW D HRMN SECON CODA AMPLIT PERI AZIMU VELO AIN AR TRES W  DIS CAZ7
 R11      P   0 D 0016 23.25                             161   -0.0210 4.91  504
 R10      P   0 D 0016 24.08                             132   -0.0410 14.6 2834
 R10      S   2   0016 27.19                             132    0.10 5 14.6 2834
 R7       P   0 U 0016 24.66                             122   -0.0710 19.4 1694
 R7       S   2   0016 28.23                             122    0.08 5 19.4 1694
 R12      P   0 U 0016 25.08                             118   -0.0110 22.0  824
 R12      S   2   0016 28.67                             118   -0.10 5 22.0  824
 R6       P   0 U 0016 25.37                             115    0.0310 23.8 2174
 R6       S   2   0016 29.20                             115   -0.01 5 23.8 2174
 R15      P   0 D 0016 25.65                             113    0.0510 25.6   84
 R15      S   2   0016 29.77                             113    0.11 5 25.6   84
 R8       P   0 D 0016 26.09                             109   -0.0210 28.9 1314
 R14      P   0 D 0016 26.11                             109   -0.0110 29.0 3314
 R9       P   0 D 0016 26.67                             107    0.0310 32.4 2764
 R9       S   2   0016 31.54                             107    0.09 5 32.4 2764
 R16      S   2   0016 31.64                             106   -0.06 5 33.4  414
 R5       P   0 U 0016 27.32                             103   -0.0910 37.5 2404
 R5       S   2   0016 32.72                             103   -0.07 5 37.5 2404
 R13      P   0 D 0016 27.93                             102   -0.0210 41.0 3084
 R3       P   0 D 0016 27.98                             101   -0.0310 41.4 1754
 R3       S   2   0016 33.93                             101    0.09 5 41.4 1754
 R2       P   0 U 0016 28.43                             100    0.0810 43.6 1994
 R2       S   2   0016 34.36                             100   -0.06 5 43.6 1994
 R4       P   0 D 0016 28.92                              99    0.0810 46.7 1524
 R4       S   2   0016 35.28                              99    0.02 5 46.7 1524
 R1       P   0 U 0016 29.68                              68   -0.0210 52.4 2184
                                                                                
 2016  1 1 0016 40.1 L  35.959  52.054 15.6  SYN 16 0.1                        1
 GAP= 52        0.20       0.4     0.6  1.2 -0.2823E-01  0.1731E+00 -0.1358E+00E
 STAT SP IPHASW D HRMN SECON CODA AMPLIT PERI AZIMU VELO AIN AR TRES W  DIS CAZ7
 R7       P   0 U 0016 43.36                             149    0.0410 7.74 1484
 R7       S   2   0016 45.51                             149   -0.18 5 7.74 1484
 R6       S   2   0016 47.17                             127    0.07 5 15.4 2454
 R11      S   2   0016 47.40                             125    0.11 5 16.2  154
 R10      P   0 D 0016 44.86                             116   -0.0210 20.9 3184
 R10      S   2   0016 48.36                             116   -0.04 5 20.9 3184
 R8       S   2   0016 48.90                             113   -0.06 5 23.1 1064
 R12      P   0 U 0016 45.81                             108    0.0210 27.1  554
 R12      S   2   0016 49.88                             108   -0.09 5 27.1  554
 R3       S   2   0016 50.57                             106    0.08 5 29.0 1724
 R2       P   0 U 0016 46.49                             104   -0.0410 31.9 2064
 R2       S   2   0016 51.34                             104    0.09 5 31.9 2064
 R5       S   2   0016 51.51                             103    0.06 5 32.6 2594
 R9       P   0 D 0016 47.07                             102   -0.0410 35.5 2964
 R9       S   2   0016 52.28                             102    0.03 5 35.5 2964
 R4       S   2   0016 52.43                             101   -0.01 5 36.3 1424
 R15      P   0 D 0016 47.43                             100   -0.0510 38.0   64
 R15      S   2   0016 52.89                             100    0.00 5 38.0   64
 R14      P   0 D 0016 47.85                              99    0.0110 40.3 3404
 R14      S   2   0016 53.69                              99    0.18 5 40.3 3404
 R1       P   0 U 0016 48.24                              98   -0.0310 43.0 2284
 R1       S   2   0016 54.34                              98    0.09 5 43.0 2284
 R16      P   0 U 0016 48.48                              98    0.0910 43.8  304
 R13      P   0 D 0016 49.24                              97   -0.0410 49.5 3204
 R13      S   2   0016 55.94                              97   -0.07 5 49.5 3204
                                                                                
