 2016  1 1 0011 20.0 L  36.032  52.151 24.3  SYN 16 0.1                        1
 GAP= 77        0.19       0.4     0.7  1.3  0.1845E-01  0.3839E+00  0.4531E-01E
 STAT SP IPHASW D HRMN SECON CODA AMPLIT PERI AZIMU VELO AIN AR TRES W  DIS CAZ7
 R11      P   0 D 0011 24.49                             157   -0.0510 8.85 3294
 R7       P   0 U 0011 25.05                             142    0.0410 15.3 1974
 R7       S   2   0011 28.74                             142    0.11 5 15.3 1974
 R12      P   0 D 0011 24.94                             142   -0.0810 15.5  614
 R12      S   2   0011 28.64                             142   -0.02 5 15.5  614
 R8       P   0 U 0011 25.47                             134    0.0010 19.9 1374
 R10      P   0 D 0011 25.91                             128    0.0110 23.8 2894
 R6       P   0 U 0011 26.23                             123   -0.0410 26.9 2374
 R6       S   2   0011 30.89                             123    0.08 5 26.9 2374
 R15      P   0 D 0011 26.70                             119    0.0310 30.1 3514
 R15      S   2   0011 31.62                             119    0.11 5 30.1 3514
 R16      P   0 D 0011 27.06                             117    0.0410 32.7  244
 R3       P   0 U 0011 27.60                             113    0.0010 37.1 1874
 R3       S   2   0011 33.16                             113    0.04 5 37.1 1874
 R14      P   0 D 0011 27.72                             112    0.0810 37.3 3234
 R14      S   2   0011 33.06                             112   -0.12 5 37.3 3234
 R4       P   0 U 0011 27.88                             111   -0.0110 39.2 1604
 R4       S   2   0011 33.63                             111    0.01 5 39.2 1604
 R9       P   0 D 0011 28.13                             109   -0.0610 41.3 2814
 R5       S   2   0011 34.52                             108   -0.06 5 43.2 2504
 R2       P   0 U 0011 28.40                             108   -0.0410 43.2 2124
 R5       P   0 U 0011 28.44                             108    0.0010 43.2 2504
 R13      P   0 D 0011 29.49                             104    0.0410 50.3 3064
 R13      S   2   0011 36.20                             104   -0.12 5 50.3 3064
 R1       P   0 U 0011 30.11                             103    0.0110 54.8 2284
 R1       S   2   0011 37.56                             103    0.12 5 54.8 2284
                                                                                
 2016  1 1 0011 40.0 L  35.985  52.165 10.6  SYN 14 0.1                        1
 GAP= 84        0.21       0.4     0.7  1.0 -0.4060E-01  0.3829E+00 -0.1034E+00E
 STAT SP IPHASW D HRMN SECON CODA AMPLIT PERI AZIMU VELO AIN AR TRES W  DIS CAZ7
 R7       S   2   0011 45.30                             126    0.05 5 11.1 2124
 R11      S   2   0011 46.12                             118    0.09 5 14.1 3354
 R8       P   0 D 0011 43.68                             115   -0.0110 15.4 1284
 R8       S   2   0011 46.22                             115   -0.15 5 15.4 1284
 R12      P   0 U 0011 44.05                             110    0.0110 17.6  434
 R12      S   2   0011 46.97                             110   -0.01 5 17.6  434
 R6       S   2   0011 49.34                             101    0.03 5 25.7 2494
 R3       P   0 U 0011 46.51                              98    0.0210 32.1 1914
 R3       S   2   0011 51.21                              98   -0.01 5 32.1 1914
 R4       P   0 D 0011 46.83                              97    0.0510 33.8 1594
 R4       S   2   0011 51.71                              97   -0.01 5 33.8 1594
 R15      P   0 D 0011 47.04                              97   -0.0110 35.5 3504
 R15      S   2   0011 52.19                              97    0.00 5 35.5 3504
 R16      P   0 U 0011 47.29                              67   -0.0210 37.0  194
 R16      S   2   0011 52.87                              67    0.23 5 37.0  194
 R2       S   2   0011 53.49                              67    0.15 5 39.6 2174
 R5       S   2   0011 54.15                              67   -0.13 5 43.0 2584
 R9       P   0 D 0011 48.35                              67   -0.0510 43.8 2874
 R1       S   2   0011 56.99                              67    0.08 5 52.6 2334
 R13      P   0 D 0011 50.03                              67   -0.0710 54.6 3104
 R13      S   2   0011 57.51                              67    0.05 5 54.6 3104
                                                                                
 2016  1 1 0012  0.0 L  36.069  52.105 19.5  SYN 14 0.1                        1
 GAP= 78        0.22       0.7     0.8  1.5  0.4793E-01  0.3655E+00  0.3786E+00E
 STAT SP IPHASW D HRMN SECON CODA AMPLIT PERI AZIMU VELO AIN AR TRES W  DIS CAZ7
 R11      S   2   0012  6.30                             168    0.09 5 3.47 3534
 R12      P   0 U 0012  4.73                             127   -0.0310 17.9  794
 R12      S   2   0012  8.05                             127   -0.17 5 17.9  794
 R7       S   2   0012  8.52                             125    0.13 5 18.7 1814
 R10      S   2   0012  8.33                             125   -0.07 5 18.8 2814
 R6       P   0 U 0012  5.83                             112   -0.0110 26.3 2254
 R16      S   2   0012 11.43                             105    0.17 5 31.1  344
 R14      P   0 D 0012  6.55                             104   -0.0410 31.6 3244
 R9       S   2   0012 12.66                             100    0.01 5 36.6 2764
 R3       P   0 U 0012  7.97                              97    0.0310 40.9 1814
 R3       S   2   0012 13.67                              97   -0.05 5 40.9 1814
 R5       P   0 U 0012  7.92                              97   -0.0410 41.0 2434
 R5       S   2   0012 13.82                              97    0.07 5 41.0 2434
 R13      S   2   0012 14.84                              95    0.21 5 44.5 3054
 R4       P   0 D 0012  8.52                              95    0.0510 44.6 1574
 R4       S   2   0012 14.70                              95    0.06 5 44.6 1574
 R2       P   0 U 0012  8.47                              95   -0.0410 44.9 2044
 R2       S   2   0012 14.83                              95    0.12 5 44.9 2044
 R1       P   0 U 0012  9.95                              93   -0.0410 54.9 2224
 R1       S   2   0012 17.20                              93   -0.06 5 54.9 2224
                                                                                
 2016  1 1 0012 20.0 L  35.990  51.938 15.8  SYN 16 0.1                        1
 GAP= 55        0.18       0.3     0.5  1.0 -0.1298E-02 -0.6881E-01 -0.2584E-01E
 STAT SP IPHASW D HRMN SECON CODA AMPLIT PERI AZIMU VELO AIN AR TRES W  DIS CAZ7
 R6       P   0 U 0012 23.56                             141    0.0010 10.5 1994
 R6       S   2   0012 26.08                             141   -0.06 5 10.5 1994
 R10      P   0 D 0012 23.75                             134   -0.0510 12.7 3444
 R10      S   2   0012 26.58                             134    0.03 5 12.7 3444
 R7       P   0 D 0012 24.45                             123    0.0410 17.6 1244
 R7       S   2   0012 27.70                             123    0.09 5 17.6 1244
 R11      P   0 U 0012 24.61                             120    0.0010 19.0  504
 R11      S   2   0012 28.01                             120    0.06 5 19.0  504
 R5       P   0 U 0012 25.33                             113    0.0610 23.7 2454
 R5       S   2   0012 29.08                             113   -0.01 5 23.7 2454
 R9       P   0 D 0012 25.40                             111   -0.0310 24.7 3004
 R9       S   2   0012 29.24                             111   -0.13 5 24.7 3004
 R2       P   0 U 0012 26.60                             104    0.0410 32.3 1864
 R2       S   2   0012 31.26                             104   -0.06 5 32.3 1864
 R8       P   0 D 0012 26.87                             103    0.0210 34.1 1074
 R8       S   2   0012 31.81                             103   -0.01 5 34.1 1074
 R14      P   0 D 0012 26.92                             103   -0.0110 34.6 3544
 R14      S   2   0012 32.05                             103    0.09 5 34.6 3544
 R12      P   0 U 0012 26.84                             102   -0.1110 34.8  694
 R12      S   2   0012 31.91                             102   -0.08 5 34.8  694
 R3       S   2   0012 32.19                             102    0.05 5 35.3 1554
 R15      P   0 U 0012 27.30                             101   -0.0510 37.4  234
 R15      S   2   0012 32.80                             101    0.12 5 37.4  234
 R1       P   0 U 0012 27.55                             100   -0.0110 38.7 2144
 R1       S   2   0012 33.02                             100   -0.03 5 38.7 2144
 R13      P   0 D 0012 27.87                             100    0.0210 40.6 3284
 R13      S   2   0012 33.61                             100    0.05 5 40.6 3284
 R4       P   0 D 0012 28.64                              98   -0.0410 45.8 1344
 R4       S   2   0012 34.95                              98   -0.04 5 45.8 1344
 R16      P   0 U 0012 29.02                              98    0.1010 47.4  434
 R16      S   2   0012 35.36                              98   -0.05 5 47.4  434
                                                                                
 2016  1 1 0012 40.1 L  36.180  51.984 15.7  SYN 14 0.1                        1
 GAP= 94        0.21       0.6     0.7  1.1  0.1421E+00  0.2157E+00  0.2839E+00E
 STAT SP IPHASW D HRMN SECON CODA AMPLIT PERI AZIMU VELO AIN AR TRES W  DIS CAZ7
 R10      P   0 U 0012 43.63                             137   -0.0510 11.7 2204
 R10      S   2   0012 46.24                             137   -0.09 5 11.7 2204
 R11      P   0 U 0012 43.92                             131    0.0010 13.7 1304
 R11      S   2   0012 46.85                             131    0.11 5 13.7 1304
 R14      P   0 D 0012 44.10                             127   -0.0210 15.3 3304
 R14      S   2   0012 47.14                             127    0.05 5 15.3 3304
 R9       P   0 U 0012 45.76                             108   -0.0310 27.1 2514
 R9       S   2   0012 50.02                             108    0.04 5 27.1 2514
 R13      P   0 D 0012 46.01                             106   -0.0310 28.8 2984
 R13      S   2   0012 50.57                             106    0.15 5 28.8 2984
 R12      S   2   0012 50.77                             106    0.11 5 29.8 1074
 R16      S   2   0012 51.05                             104   -0.04 5 31.3  654
 R6       P   0 U 0012 46.52                             104    0.0010 32.0 1944
 R6       S   2   0012 51.39                             104    0.15 5 32.0 1944
 R7       S   2   0012 51.43                             103   -0.03 5 32.8 1614
 R5       P   0 U 0012 47.83                              99    0.0110 40.3 2204
 R8       S   2   0012 53.82                              99   -0.17 5 42.1 1374
 R2       P   0 U 0012 49.91                              96   -0.0310 53.8 1884
 R3       S   2   0012 57.36                              96    0.06 5 54.3 1694
 R1       P   0 U 0012 50.85                              68    0.08 9 59.1 2064
 R1       S   2   0012 58.53                              68   -0.06 5 59.1 2064
                                                                                
 2016  1 1 0013  0.0 L  36.142  52.043  4.6  SYN 16 0.1                        1
 GAP= 52        0.18       0.3     0.4  0.9  0.8735E-02  0.5454E-01  0.1249E+00E
 STAT SP IPHASW D HRMN SECON CODA AMPLIT PERI AZIMU VELO AIN AR TRES W  DIS CAZ7
 R11      P   0 D 0013  1.81                             111   -0.0210 6.93 1324
 R10      P   0 U 0013  3.12                              95    0.0410 13.6 2504
 R10      S   2   0013  5.34                              95    0.02 5 13.6 2504
 R15      P   0 U 0013  3.99                              93    0.0210 18.3  164
 R15      S   2   0013  6.78                              93   -0.08 5 18.3  164
 R14      P   0 D 0013  4.65                              92    0.0010 21.7 3244
 R14      S   2   0013  7.96                              92   -0.07 5 21.7 3244
 R12      P   0 D 0013  5.03                              92    0.0310 23.6 1014
 R7       P   0 D 0013  5.73                              92    0.0210 27.3 1694
 R7       S   2   0013  9.76                              92   -0.10 5 27.3 1694
 R16      P   0 U 0013  6.06                              92    0.0110 29.0  534
 R16      S   2   0013 10.46                              92    0.01 5 29.0  534
 R6       P   0 U 0013  6.15                              91   -0.0210 29.7 2064
 R6       S   2   0013 10.76                              91    0.09 5 29.7 2064
 R9       P   0 U 0013  6.42                              91   -0.0510 31.2 2624
 R9       S   2   0013 11.22                              91    0.03 5 31.2 2624
 R8       S   2   0013 12.63                              91    0.04 5 35.4 1394
 R13      P   0 D 0013  7.27                              91   -0.0110 35.5 3004
 R13      S   2   0013 12.72                              91    0.13 5 35.5 3004
 R5       P   0 U 0013  8.22                              64   -0.0410 40.9 2294
 R5       S   2   0013 14.37                              64    0.09 5 40.9 2294
 R3       P   0 D 0013  9.75                              64    0.0410 49.3 1744
 R3       S   2   0013 16.82                              64    0.04 5 49.3 1744
 R2       P   0 D 0013  9.83                              64   -0.1110 50.7 1954
 R2       S   2   0013 17.13                              64   -0.05 5 50.7 1954
 R4       P   0 D 0013 10.53                              64   -0.0310 54.2 1554
 R1       P   0 D 0013 11.27                              56    0.09 9 57.9 2124
 R1       S   2   0013 19.30                              56   -0.03 5 57.9 2124
                                                                                
 2016  1 1 0013 20.0 L  36.158  52.002  7.0  SYN 14 0.1                        1
 GAP= 89        0.20       0.4     0.5  0.7 -0.2411E-01 -0.1440E-01  0.6197E-01E
 STAT SP IPHASW D HRMN SECON CODA AMPLIT PERI AZIMU VELO AIN AR TRES W  DIS CAZ7
 R11      P   0 D 0013 22.72                             117    0.0010 10.9 1264
 R10      P   0 U 0013 22.78                             116    0.0110 11.2 2354
 R10      S   2   0013 24.76                             116   -0.01 5 11.2 2354
 R15      P   0 U 0013 24.03                             104    0.0210 18.0  294
 R12      S   2   0013 30.00                              64    0.06 5 27.6 1034
 R9       P   0 U 0013 25.75                              64   -0.0910 27.9 2574
 R7       S   2   0013 30.79                              64    0.14 5 29.9 1634
 R16      P   0 U 0013 26.36                              64   -0.0110 31.1  594
 R16      S   2   0013 30.98                              64   -0.02 5 31.1  594
 R13      P   0 D 0013 26.46                              64    0.0310 31.4 3004
 R13      S   2   0013 31.12                              64    0.02 5 31.4 3004
 R8       S   2   0013 33.31                              64   -0.13 5 39.2 1374
 R5       S   2   0013 33.56                              64    0.04 5 39.5 2244
 R2       P   0 D 0013 29.91                              64    0.0010 51.6 1904
 R2       S   2   0013 37.16                              64    0.04 5 51.6 1904
 R3       P   0 D 0013 29.88                              64   -0.0210 51.6 1704
 R3       S   2   0013 37.06                              64   -0.05 5 51.6 1704
 R4       P   0 D 0013 30.84                              56   -0.01 9 57.5 1524
 R1       P   0 D 0013 30.92                              56    0.04 9 57.7 2084
 R1       S   2   0013 38.86                              56    0.05 5 57.7 2084
                                                                                
 2016  1 1 0013 40.0 L  35.808  51.992  3.4  SYN 13 0.1                        1
 GAP= 74        0.22       0.6     0.6  0.9  0.6274E-01 -0.1162E+00 -0.3296E+00E
 STAT SP IPHASW D HRMN SECON CODA AMPLIT PERI AZIMU VELO AIN AR TRES W  DIS CAZ7
 R6       P   0 D 0013 42.92                             105   -0.0410 13.1 3214
 R2       P   0 U 0013 43.32                              60    0.0510 14.6 2154
 R2       S   2   0013 45.79                              60    0.10 5 14.6 2154
 R3       P   0 D 0013 43.44                              60   -0.0110 15.5 1414
 R3       S   2   0013 45.84                              60   -0.17 5 15.5 1414
 R5       S   2   0013 50.26                              60    0.02 5 28.2 2914
 R1       S   2   0013 50.52                              60    0.03 5 29.0 2464
 R8       P   0 U 0013 46.14                              60   -0.0310 29.6  704
 R8       S   2   0013 50.91                              60    0.20 5 29.6  704
 R4       P   0 D 0013 46.32                              60    0.0110 30.4 1134
 R10      S   2   0013 52.01                              60    0.08 5 33.4 3464
 R11      P   0 U 0013 46.98                              60    0.0110 33.8  174
 R9       P   0 U 0013 48.44                              51   -0.0410 41.7 3214
 R12      P   0 U 0013 48.61                              51   -0.0210 42.6  414
 R13      S   2   0014  0.21                              46   -0.04 5 60.5 3344
 R16      S   2   0014  0.53                              46    0.09 5 61.2  274
                                                                                
 2016  1 1 0014  0.1 L  35.864  51.975 13.1  SYN 13 0.1                        1
 GAP=100        0.21       0.6     0.8  1.5  0.1641E+00 -0.6563E-01 -0.1947E+00E
 STAT SP IPHASW D HRMN SECON CODA AMPLIT PERI AZIMU VELO AIN AR TRES W  DIS CAZ7
 R6       S   2   0014  5.01                             142   -0.11 5 7.88 3014
 R7       P   0 D 0014  3.43                             127   -0.0210 12.0  704
 R7       S   2   0014  6.07                             127    0.14 5 12.0  704
 R2       S   2   0014  7.71                             108   -0.02 5 19.4 2004
 R3       P   0 D 0014  4.78                             104   -0.0310 21.4 1484
 R3       S   2   0014  8.42                             104    0.14 5 21.4 1484
 R10      P   0 D 0014  5.67                              97   -0.0210 27.1 3464
 R10      S   2   0014  9.97                              97    0.17 5 27.1 3464
 R11      S   2   0014 10.17                              96   -0.05 5 28.5  234
 R8       P   0 U 0014  6.11                              96    0.0110 29.6  824
 R8       S   2   0014 10.58                              96    0.07 5 29.6  824
 R4       P   0 D 0014  6.89                              94    0.0110 34.5 1224
 R9       P   0 D 0014  7.20                              94    0.0610 36.1 3174
 R12      P   0 U 0014  7.61                              93   -0.0210 39.3  484
 R12      S   2   0014 13.14                              93   -0.01 5 39.3  484
 R14      P   0 D 0014  9.13                              92   -0.0310 48.9 3524
 R14      S   2   0014 15.81                              92    0.02 5 48.9 3524
 R15      P   0 U 0014  9.22                              92   -0.0610 49.7  134
 R13      S   2   0014 17.38                              92    0.08 5 54.4 3334
                                                                                
