 2016  1 1 0008 20.0 L  36.154  52.191 14.9  SYN 14 0.1                        1
 GAP= 90        0.20       0.5     0.7  1.1  0.3929E-01  0.2139E+00  0.2258E+00E
 STAT SP IPHASW D HRMN SECON CODA AMPLIT PERI AZIMU VELO AIN AR TRES W  DIS CAZ7
 R11      P   0 U 0008 23.37                             139   -0.0510 10.1 2344
 R11      S   2   0008 25.83                             139   -0.07 5 10.1 2344
 R12      P   0 U 0008 23.56                             135    0.0010 11.5 1214
 R12      S   2   0008 26.12                             135   -0.01 5 11.5 1214
 R15      P   0 D 0008 24.42                             119    0.0110 18.2 3334
 R15      S   2   0008 27.67                             119    0.06 5 18.2 3334
 R16      P   0 D 0008 24.50                             117   -0.0310 19.0  314
 R16      S   2   0008 27.85                             117    0.04 5 19.0  314
 R10      P   0 U 0008 25.68                             106   -0.0110 26.9 2574
 R10      S   2   0008 29.83                             106    0.01 5 26.9 2574
 R7       P   0 U 0008 26.18                             104    0.1110 29.3 1964
 R7       S   2   0008 30.54                             104    0.07 5 29.3 1964
 R8       P   0 D 0008 26.15                             103    0.0010 29.8 1614
 R8       S   2   0008 30.54                             103   -0.07 5 29.8 1614
 R14      S   2   0008 31.01                             102    0.13 5 30.8 3024
 R6       P   0 U 0008 27.47                              98   -0.0210 38.5 2234
 R6       S   2   0008 32.89                              98   -0.05 5 38.5 2234
 R3       P   0 U 0008 29.48                              95    0.0010 51.0 1894
 R4       P   0 D 0008 29.50                              95   -0.0210 51.3 1694
 R4       S   2   0008 36.60                              95    0.15 5 51.3 1694
 R5       P   0 U 0008 29.71                              95    0.0010 52.4 2384
 R2       P   0 U 0008 30.40                              94    0.0210 56.8 2084
 R1       P   0 U 0008 31.88                              68   -0.08 9 67.1 2224
                                                                                
 2016  1 1 0008 40.0 L  35.832  51.866 18.0  SYN 15 0.1                        1
 GAP= 71        0.21       0.6     0.8  0.8  0.1238E+00 -0.3146E+00 -0.2750E+00E
 STAT SP IPHASW D HRMN SECON CODA AMPLIT PERI AZIMU VELO AIN AR TRES W  DIS CAZ7
 R6       P   0 D 0008 43.62                             152    0.0010 8.17  224
 R2       P   0 U 0008 44.24                             134   -0.0210 14.9 1684
 R2       S   2   0008 47.36                             134   -0.01 5 14.9 1684
 R5       P   0 D 0008 44.46                             130   -0.0310 16.8 2974
 R5       S   2   0008 47.82                             130    0.06 5 16.8 2974
 R1       P   0 U 0008 45.00                             123   -0.0210 20.9 2264
 R1       S   2   0008 48.77                             123    0.09 5 20.9 2264
 R7       S   2   0008 49.05                             121    0.04 5 22.4  704
 R3       P   0 D 0008 45.76                             116    0.0810 25.7 1254
 R3       S   2   0008 49.72                             116   -0.10 5 25.7 1254
 R10      P   0 D 0008 46.35                             112    0.0710 29.9   64
 R10      S   2   0008 50.68                             112   -0.18 5 29.9   64
 R9       S   2   0008 51.69                              68   -0.07 5 33.3 3334
 R11      P   0 U 0008 47.21                              68   -0.0510 36.5  354
 R4       P   0 D 0008 48.03                              68   -0.0310 41.9 1104
 R12      P   0 U 0008 49.15                              68    0.0310 49.2  534
 R12      S   2   0008 55.77                              68    0.01 5 49.2  534
 R14      S   2   0008 56.69                              68    0.18 5 52.0   34
 R13      S   2   0008 56.97                              68   -0.06 5 54.1 3444
 R15      P   0 U 0008 50.16                              68    0.0310 56.1  224
 R16      P   0 U 0008 51.42                              68   -0.04 9 65.0  374
                                                                                
 2016  1 1 0009  0.0 L  36.122  52.007  6.2  SYN 16 0.1                        1
 GAP= 49        0.19       0.3     0.4  0.6 -0.5677E-02 -0.2784E-01  0.4846E-01E
 STAT SP IPHASW D HRMN SECON CODA AMPLIT PERI AZIMU VELO AIN AR TRES W  DIS CAZ7
 R11      P   0 D 0009  2.33                             119    0.0510 8.73 1064
 R11      S   2   0009  3.95                             119    0.02 5 8.73 1064
 R10      P   0 U 0009  2.44                             115   -0.0310 9.91 2564
 R10      S   2   0009  4.16                             115   -0.10 5 9.91 2564
 R15      P   0 U 0009  4.63                              98    0.0110 21.5  234
 R15      S   2   0009  7.95                              98   -0.03 5 21.5  234
 R14      P   0 D 0009  4.76                              98    0.0310 22.0 3344
 R14      S   2   0009  8.17                              98    0.00 5 22.0 3344
 R7       P   0 D 0009  5.44                              97   -0.0410 26.0 1614
 R6       P   0 U 0009  5.53                              96   -0.0310 26.4 2014
 R6       S   2   0009  9.50                              96   -0.11 5 26.4 2014
 R12      P   0 D 0009  5.62                              96    0.0410 26.5  954
 R9       P   0 U 0009  5.86                              96    0.0310 27.7 2654
 R9       S   2   0009 10.20                              96    0.12 5 27.7 2654
 R16      P   0 U 0009  6.65                              64   -0.1110 33.0  534
 R16      S   2   0009 11.62                              64   -0.06 5 33.0  534
 R13      P   0 D 0009  6.96                              64    0.0310 33.9 3064
 R8       P   0 D 0009  7.31                              64    0.0110 36.1 1334
 R8       S   2   0009 12.70                              64    0.08 5 36.1 1334
 R5       P   0 U 0009  7.45                              64   -0.0110 37.0 2284
 R3       P   0 D 0009  9.32                              64    0.0510 47.5 1704
 R3       S   2   0009 16.06                              64    0.03 5 47.5 1704
 R2       P   0 D 0009  9.26                              64   -0.0410 47.8 1924
 R4       P   0 D 0009 10.35                              56    0.0110 53.7 1504
 R1       P   0 D 0009 10.48                              56    0.0410 54.4 2114
                                                                                
 2016  1 1 0009 20.0 L  36.072  52.180 12.3  SYN 13 0.1                        1
 GAP=127        0.22       0.5     1.0  2.0  0.9147E-01  0.1521E+00  0.5895E-01E
 STAT SP IPHASW D HRMN SECON CODA AMPLIT PERI AZIMU VELO AIN AR TRES W  DIS CAZ7
 R11      P   0 D 0009 22.86                             140   -0.0110 7.86 2944
 R7       P   0 U 0009 24.62                              99    0.0310 20.3 2014
 R7       S   2   0009 27.93                              99    0.02 5 20.3 2014
 R8       P   0 D 0009 24.84                              96    0.0010 21.9 1504
 R10      S   2   0009 29.41                              93    0.12 5 25.4 2774
 R15      P   0 D 0009 25.54                              92    0.0110 26.3 3444
 R15      S   2   0009 29.34                              92   -0.21 5 26.3 3444
 R16      S   2   0009 29.98                              92    0.08 5 27.5  234
 R6       P   0 U 0009 26.35                              91   -0.0210 31.6 2334
 R14      P   0 D 0009 27.09                              91    0.0610 35.7 3154
 R14      S   2   0009 32.22                              91    0.08 5 35.7 3154
 R3       P   0 U 0009 27.97                              91   -0.0310 41.8 1904
 R9       P   0 D 0009 28.18                              91   -0.0710 43.3 2744
 R9       S   2   0009 34.20                              91   -0.05 5 43.3 2744
 R5       P   0 U 0009 28.86                              91   -0.0110 47.3 2464
 R2       S   2   0009 35.67                              91    0.08 5 48.3 2124
 R13      S   2   0009 36.10                              91    0.02 5 50.1 3014
                                                                                
 2016  1 1 0009 40.1 L  35.986  52.059 13.1  SYN 16 0.1                        1
 GAP= 54        0.20       0.4     0.5  1.2  0.7989E-02  0.8237E-01 -0.4465E-01E
 STAT SP IPHASW D HRMN SECON CODA AMPLIT PERI AZIMU VELO AIN AR TRES W  DIS CAZ7
 R7       P   0 U 0009 43.25                             133    0.0210 10.2 1594
 R7       S   2   0009 45.64                             133    0.09 5 10.2 1594
 R11      P   0 D 0009 43.55                             123   -0.0610 13.2  164
 R11      S   2   0009 46.19                             123   -0.02 5 13.2  164
 R6       P   0 U 0009 44.14                             113   -0.0210 17.2 2364
 R6       S   2   0009 47.21                             113    0.06 5 17.2 2364
 R10      S   2   0009 47.60                             109   -0.05 5 19.1 3124
 R8       P   0 D 0009 45.15                             101   -0.0210 23.8 1144
 R8       S   2   0009 48.96                             101    0.05 5 23.8 1144
 R12      P   0 U 0009 45.35                              99   -0.0310 25.2  604
 R3       P   0 U 0009 46.40                              95   -0.0510 31.9 1734
 R5       P   0 U 0009 46.80                              94    0.0610 33.7 2544
 R5       S   2   0009 51.68                              94    0.06 5 33.7 2544
 R9       P   0 D 0009 46.90                              94    0.0010 34.7 2924
 R9       S   2   0009 51.88                              94   -0.02 5 34.7 2924
 R2       P   0 U 0009 46.95                              94    0.0510 34.8 2044
 R2       S   2   0009 51.83                              94   -0.06 5 34.8 2044
 R15      P   0 D 0009 46.96                              94    0.0210 35.1   64
 R15      S   2   0009 52.12                              94    0.15 5 35.1   64
 R14      P   0 D 0009 47.33                              93   -0.0310 37.7 3384
 R14      S   2   0009 52.85                              93    0.15 5 37.7 3384
 R4       P   0 D 0009 47.55                              93    0.0610 38.5 1454
 R4       S   2   0009 52.97                              93    0.05 5 38.5 1454
 R16      P   0 U 0009 47.78                              93   -0.1210 41.1  324
 R1       S   2   0009 54.69                              92   -0.11 5 45.3 2264
 R13      P   0 D 0009 48.93                              92    0.0110 47.5 3174
 R13      S   2   0009 55.50                              92    0.10 5 47.5 3174
                                                                                
 2016  1 1 0010  0.0 L  36.065  52.142  2.4  SYN 14 0.1                        1
 GAP= 68        0.20       0.3     0.5  0.6  0.1191E-01  0.5647E-01  0.1734E-01E
 STAT SP IPHASW D HRMN SECON CODA AMPLIT PERI AZIMU VELO AIN AR TRES W  DIS CAZ7
 R11      P   0 D 0010  1.37                             114    0.0410 5.46 3154
 R11      S   2   0010  2.21                             114   -0.09 5 5.46 3154
 R12      P   0 U 0010  3.27                              99   -0.0310 14.7  754
 R7       P   0 D 0010  4.20                              97    0.0210 18.7 1924
 R7       S   2   0010  7.27                              97    0.04 5 18.7 1924
 R10      S   2   0010  8.37                              60   -0.07 5 22.2 2804
 R8       S   2   0010  8.83                              60    0.05 5 23.2 1424
 R15      S   2   0010  9.86                              60    0.03 5 26.4 3524
 R6       S   2   0010 10.39                              60   -0.16 5 28.5 2304
 R16      P   0 U 0010  6.38                              60    0.0510 29.7  284
 R16      S   2   0010 10.95                              60    0.00 5 29.7  284
 R14      P   0 U 0010  7.12                              60   -0.0410 34.0 3204
 R14      S   2   0010 12.40                              60    0.01 5 34.0 3204
 R3       P   0 D 0010  8.47                              60    0.0310 40.7 1854
 R4       P   0 D 0010  8.80                              51   -0.0610 42.9 1614
 R5       P   0 U 0010  9.00                              51   -0.0310 43.9 2454
 R5       S   2   0010 15.78                              51    0.15 5 43.9 2454
 R2       P   0 D 0010  9.39                              51    0.0010 46.0 2084
 R2       S   2   0010 16.24                              51   -0.01 5 46.0 2084
 R13      P   0 U 0010  9.72                              51    0.0510 47.6 3034
 R13      S   2   0010 16.70                              51   -0.03 5 47.6 3034
                                                                                
 2016  1 1 0010 20.0 L  35.914  52.189  6.8  SYN 15 0.1                        1
 GAP= 86        0.21       0.4     0.7  1.0 -0.5893E-01  0.1941E+00 -0.9366E-01E
 STAT SP IPHASW D HRMN SECON CODA AMPLIT PERI AZIMU VELO AIN AR TRES W  DIS CAZ7
 R7       S   2   0010 23.83                             125   -0.01 5 8.17 2594
 R8       S   2   0010 24.49                             118    0.07 5 10.1  994
 R11      S   2   0010 28.22                             100   -0.01 5 22.1 3394
 R3       S   2   0010 29.24                              99    0.06 5 25.1 1994
 R4       P   0 D 0010 25.41                              98   -0.0310 25.8 1574
 R6       S   2   0010 29.71                              64    0.20 5 26.1 2674
 R10      P   0 D 0010 26.69                              64   -0.0310 33.2 3084
 R2       P   0 U 0010 27.04                              64   -0.0410 35.3 2284
 R2       S   2   0010 32.26                              64    0.02 5 35.3 2284
 R15      P   0 U 0010 28.48                              64   -0.0310 43.6 3494
 R15      S   2   0010 34.85                              64    0.14 5 43.6 3494
 R16      P   0 U 0010 28.61                              64    0.0210 44.0  134
 R16      S   2   0010 34.97                              64    0.12 5 44.0  134
 R5       P   0 U 0010 28.63                              64    0.0110 44.2 2684
 R5       S   2   0010 35.01                              64    0.10 5 44.2 2684
 R9       S   2   0010 36.19                              64   -0.08 5 48.7 2954
 R14      S   2   0010 36.49                              64   -0.19 5 50.1 3294
 R1       P   0 U 0010 29.60                              64   -0.0510 50.2 2424
 R1       S   2   0010 36.79                              64    0.09 5 50.2 2424
 R13      P   0 U 0010 31.49                              56    0.02 9 61.4 3144
                                                                                
 2016  1 1 0010 40.0 L  36.147  51.870 23.8  SYN 16 0.1                        1
 GAP= 67        0.19       0.5     0.8  1.3 -0.1880E-01 -0.4241E+00  0.2341E+00E
 STAT SP IPHASW D HRMN SECON CODA AMPLIT PERI AZIMU VELO AIN AR TRES W  DIS CAZ7
 R10      P   0 U 0010 44.22                             164   -0.0310 5.86 1524
 R10      S   2   0010 47.46                             164    0.09 5 5.86 1524
 R9       P   0 U 0010 45.03                             140    0.0410 16.1 2514
 R9       S   2   0010 48.63                             140   -0.02 5 16.1 2514
 R14      P   0 D 0010 45.05                             138   -0.0310 17.2   94
 R14      S   2   0010 48.76                             138   -0.05 5 17.2   94
 R11      S   2   0010 49.57                             131    0.00 5 21.4 1044
 R13      P   0 D 0010 45.74                             128    0.0510 22.8 3184
 R13      S   2   0010 49.81                             128   -0.05 5 22.8 3184
 R15      P   0 U 0010 46.13                             123   -0.0210 26.8  514
 R15      S   2   0010 50.65                             123   -0.01 5 26.8  514
 R6       S   2   0010 50.85                             122    0.03 5 27.5 1744
 R5       S   2   0010 51.79                             117    0.10 5 31.4 2094
 R7       P   0 D 0010 47.08                             114   -0.0510 34.3 1434
 R12      P   0 D 0010 47.74                             110   -0.0410 39.1  974
 R12      S   2   0010 53.56                             110    0.09 5 39.1  974
 R16      S   2   0010 54.27                             108    0.02 5 42.2  664
 R8       P   0 D 0010 49.05                             105    0.0910 47.5 1254
 R8       S   2   0010 55.50                             105   -0.02 5 47.5 1254
 R2       S   2   0010 55.95                             104   -0.09 5 49.6 1774
 R1       S   2   0010 56.46                             103   -0.15 5 51.9 1974
 R3       S   2   0010 56.98                             102   -0.10 5 53.7 1574
 R4       P   0 D 0010 51.22                              99    0.03 9 63.0 1424
 R4       S   2   0010 59.45                              99    0.07 5 63.0 1424
                                                                                
 2016  1 1 0011  0.0 L  35.869  51.898 17.3  SYN 16 0.1                        1
 GAP= 57        0.18       0.5     0.5  0.8  0.3160E-01 -0.5872E-01 -0.2129E+00E
 STAT SP IPHASW D HRMN SECON CODA AMPLIT PERI AZIMU VELO AIN AR TRES W  DIS CAZ7
 R6       S   2   0011  5.68                             167    0.05 5 3.47   24
 R5       P   0 D 0011  4.62                             126    0.0010 18.2 2814
 R5       S   2   0011  7.93                             126   -0.04 5 18.2 2814
 R7       P   0 U 0011  4.61                             125   -0.0310 18.5  794
 R7       S   2   0011  8.07                             125    0.05 5 18.5  794
 R2       P   0 U 0011  4.71                             125    0.0410 18.7 1804
 R2       S   2   0011  8.07                             125    0.01 5 18.7 1804
 R10      S   2   0011  9.77                             115    0.05 5 25.6   04
 R1       P   0 U 0011  5.64                             114   -0.0410 25.9 2244
 R1       S   2   0011  9.91                             114    0.11 5 25.9 2244
 R3       P   0 D 0011  5.69                             114   -0.0110 26.1 1364
 R3       S   2   0011  9.86                             114    0.01 5 26.1 1364
 R9       P   0 D 0011  6.44                             109   -0.0410 31.3 3254
 R9       S   2   0011 11.00                             109   -0.19 5 31.3 3254
 R11      S   2   0011 11.29                             109    0.08 5 31.4  354
 R8       P   0 U 0011  7.25                             105    0.0010 36.4  844
 R8       S   2   0011 12.60                             105    0.08 5 36.4  844
 R4       S   2   0011 13.59                             103   -0.11 5 40.8 1174
 R12      S   2   0011 14.58                              68   -0.04 5 44.4  554
 R14      P   0 U 0011  8.96                              68   -0.0210 47.8   04
 R14      S   2   0011 15.51                              68   -0.01 5 47.8   04
 R13      P   0 D 0011  9.53                              68    0.0710 51.1 3404
 R13      S   2   0011 16.44                              68    0.10 5 51.1 3404
 R15      S   2   0011 16.44                              68    0.09 5 51.2  214
 R16      P   0 U 0011 10.74                              68   -0.02 9 60.0  374
 R16      S   2   0011 18.51                              68   -0.10 5 60.0  374
                                                                                
