 2016  1 1 0017  0.0 L  35.854  51.986 10.7  SYN 16 0.1                        1
 GAP= 55        0.21       0.5     0.5  0.9 -0.3565E-01  0.5528E-01 -0.2193E+00E
 STAT SP IPHASW D HRMN SECON CODA AMPLIT PERI AZIMU VELO AIN AR TRES W  DIS CAZ7
 R6       S   2   0017  4.81                             132   -0.05 5 9.29 3034
 R7       P   0 U 0017  3.12                             125    0.0110 11.4  644
 R7       S   2   0017  5.25                             125   -0.11 5 11.4  644
 R2       P   0 U 0017  4.21                             109   -0.0410 18.8 2054
 R2       S   2   0017  7.49                             109    0.15 5 18.8 2054
 R3       S   2   0017  7.80                             107    0.12 5 20.0 1494
 R5       S   2   0017  9.48                             101   -0.05 5 26.3 2814
 R10      S   2   0017 10.19                             100    0.10 5 28.3 3444
 R8       P   0 U 0017  5.91                              99   -0.0210 28.8  804
 R8       S   2   0017 10.40                              99    0.16 5 28.8  804
 R11      P   0 U 0017  5.96                              99   -0.0310 29.1  214
 R11      S   2   0017 10.44                              99    0.10 5 29.1  214
 R1       P   0 U 0017  6.28                              98   -0.0410 31.0 2374
 R1       S   2   0017 11.04                              98    0.13 5 31.0 2374
 R4       P   0 D 0017  6.67                              98   -0.0110 33.1 1214
 R4       S   2   0017 11.49                              98   -0.04 5 33.1 1214
 R9       S   2   0017 12.69                              67   -0.11 5 37.5 3174
 R12      S   2   0017 13.08                              67   -0.16 5 39.3  464
 R14      P   0 U 0017  9.40                              67    0.0210 50.0 3514
 R14      S   2   0017 16.25                              67    0.04 5 50.0 3514
 R15      S   2   0017 16.56                              67    0.24 5 50.5  124
 R13      S   2   0017 17.80                              67    0.02 5 55.7 3334
 R16      P   0 U 0017 10.48                              67    0.0010 56.9  304
 R16      S   2   0017 18.01                              67   -0.10 5 56.9  304
                                                                                
 2016  1 1 0017 20.0 L  35.966  51.821  9.5  SYN 15 0.1                        1
 GAP= 88        0.20       0.4     0.7  1.0 -0.4377E-02 -0.3377E+00 -0.2123E-01E
 STAT SP IPHASW D HRMN SECON CODA AMPLIT PERI AZIMU VELO AIN AR TRES W  DIS CAZ7
 R6       P   0 U 0017 22.82                             123   -0.0110 10.2 1364
 R5       P   0 U 0017 23.37                             114    0.0910 13.2 2364
 R10      P   0 U 0017 23.80                             106    0.0010 16.4  264
 R10      S   2   0017 26.45                             106   -0.10 5 16.4  264
 R9       P   0 D 0017 24.19                             103    0.0410 18.4 3244
 R7       P   0 D 0017 25.49                              96    0.0310 26.2 1064
 R7       S   2   0017 29.57                              96    0.14 5 26.2 1064
 R11      P   0 U 0017 25.95                              95   -0.0310 29.2  594
 R11      S   2   0017 30.40                              95    0.08 5 29.2  594
 R2       P   0 D 0017 26.17                              95   -0.0110 30.4 1664
 R2       S   2   0017 30.68                              95    0.01 5 30.4 1664
 R1       P   0 U 0017 26.33                              95   -0.0510 31.5 2004
 R1       S   2   0017 30.99                              95   -0.02 5 31.5 2004
 R14      P   0 U 0017 27.43                              94   -0.0110 37.7  114
 R13      P   0 D 0017 27.55                              93   -0.0410 38.6 3444
 R3       P   0 D 0017 27.53                              93   -0.1110 38.8 1394
 R8       P   0 D 0017 28.50                              67    0.0210 43.8 1004
 R12      P   0 U 0017 28.78                              67    0.0210 45.6  714
 R12      S   2   0017 35.22                              67    0.09 5 45.6  714
 R4       P   0 D 0017 29.90                              67    0.0610 52.4 1244
 R4       S   2   0017 36.94                              67   -0.06 5 52.4 1244
 R16      P   0 U 0017 30.49                              67   -0.0510 56.8  494
 R16      S   2   0017 38.23                              67    0.01 5 56.8  494
                                                                                
 2016  1 1 0017 40.0 L  36.094  51.812 14.7  SYN 15 0.1                        1
 GAP= 68        0.20       0.4     0.7  1.2 -0.3368E-01 -0.3191E+00  0.1107E+00E
 STAT SP IPHASW D HRMN SECON CODA AMPLIT PERI AZIMU VELO AIN AR TRES W  DIS CAZ7
 R10      P   0 D 0017 43.17                             146   -0.0110 7.92  854
 R10      S   2   0017 45.52                             146    0.05 5 7.92  854
 R9       P   0 D 0017 43.40                             139   -0.0110 10.1 2744
 R9       S   2   0017 45.83                             139   -0.04 5 10.1 2744
 R6       P   0 U 0017 45.08                             110   -0.0110 23.0 1604
 R6       S   2   0017 48.90                             110    0.12 5 23.0 1604
 R5       P   0 U 0017 45.23                             109    0.0010 23.8 2054
 R5       S   2   0017 49.06                             109    0.04 5 23.8 2054
 R14      S   2   0017 48.98                             108   -0.12 5 24.1  194
 R13      P   0 D 0017 45.51                             107    0.1110 24.9 3364
 R13      S   2   0017 49.15                             107   -0.17 5 24.9 3364
 R11      S   2   0017 49.47                             106   -0.10 5 25.9  894
 R15      P   0 U 0017 46.88                              99    0.0110 34.5  494
 R15      S   2   0017 51.97                              99    0.12 5 34.5  494
 R12      P   0 U 0017 48.34                              96   -0.0110 43.9  894
 R2       P   0 D 0017 48.41                              96   -0.0310 44.5 1704
 R2       S   2   0017 54.70                              96    0.13 5 44.5 1704
 R1       S   2   0017 54.65                              96   -0.06 5 44.9 1934
 R8       S   2   0017 55.86                              95    0.04 5 49.0 1164
 R16      P   0 U 0017 49.25                              95    0.0210 49.4  624
 R3       P   0 D 0017 49.45                              95   -0.0110 50.9 1494
 R3       S   2   0017 56.45                              95    0.11 5 50.9 1494
 R4       P   0 D 0017 51.14                              94   -0.09 9 62.1 1354
 R4       S   2   0017 59.38                              94   -0.02 5 62.1 1354
                                                                                
 2016  1 1 0018  0.0 L  36.033  51.863 19.4  SYN 14 0.1                        1
 GAP= 72        0.20       0.5     0.7  1.3 -0.1076E-01 -0.3943E+00  0.1277E+00E
 STAT SP IPHASW D HRMN SECON CODA AMPLIT PERI AZIMU VELO AIN AR TRES W  DIS CAZ7
 R10      P   0 D 0018  3.81                             152    0.0110 8.15  244
 R10      S   2   0018  6.66                             152    0.10 5 8.15  244
 R9       P   0 D 0018  4.60                             130    0.0110 16.5 2974
 R9       S   2   0018  7.83                             130   -0.11 5 16.5 2974
 R5       P   0 U 0018  5.09                             121   -0.0210 20.8 2254
 R5       S   2   0018  8.81                             121   -0.02 5 20.8 2254
 R7       P   0 D 0018  5.70                             112   -0.0710 26.0 1254
 R7       S   2   0018 10.00                             112    0.02 5 26.0 1254
 R14      P   0 D 0018  6.29                             106   -0.0310 29.8   64
 R13      P   0 D 0018  6.87                             102    0.0910 33.0 3344
 R15      P   0 U 0018  7.22                              99   -0.0510 36.5  364
 R15      S   2   0018 12.62                              99    0.05 5 36.5  364
 R2       P   0 U 0018  7.37                              99    0.0210 37.1 1754
 R2       S   2   0018 12.73                              99    0.01 5 37.1 1754
 R1       P   0 U 0018  7.71                              97   -0.0410 39.8 2024
 R12      S   2   0018 13.51                              97    0.05 5 40.1  794
 R8       P   0 D 0018  8.06                              96   -0.0310 42.1 1104
 R3       P   0 D 0018  8.29                              96    0.1110 42.7 1504
 R3       S   2   0018 14.12                              96   -0.03 5 42.7 1504
 R16      P   0 U 0018  9.11                              94   -0.0310 49.2  534
 R4       P   0 D 0018  9.85                              93    0.0010 54.1 1334
 R4       S   2   0018 17.09                              93    0.06 5 54.1 1334
                                                                                
 2016  1 1 0018 20.0 L  36.153  52.117 23.3  SYN 15 0.1                        1
 GAP= 95        0.18       0.5     0.6  1.1  0.4799E-01  0.1461E+00  0.2147E+00E
 STAT SP IPHASW D HRMN SECON CODA AMPLIT PERI AZIMU VELO AIN AR TRES W  DIS CAZ7
 R11      P   0 U 0018 24.27                             163    0.0310 6.06 1954
 R11      S   2   0018 27.22                             163   -0.09 5 6.06 1954
 R12      P   0 U 0018 25.04                             136   -0.0410 17.4 1104
 R10      P   0 U 0018 25.40                             131    0.0010 20.4 2534
 R10      S   2   0018 29.39                             131    0.06 5 20.4 2534
 R16      P   0 D 0018 25.78                             127    0.0610 23.1  454
 R16      S   2   0018 29.92                             127    0.04 5 23.1  454
 R14      S   2   0018 30.35                             123   -0.02 5 25.5 3104
 R7       P   0 U 0018 26.27                             120   -0.0510 28.1 1834
 R7       S   2   0018 30.99                             120    0.07 5 28.1 1834
 R8       P   0 U 0018 26.95                             115    0.0410 32.5 1504
 R8       S   2   0018 31.84                             115   -0.10 5 32.5 1504
 R6       P   0 U 0018 27.15                             113    0.0210 34.2 2154
 R6       S   2   0018 32.30                             113   -0.01 5 34.2 2154
 R9       P   0 U 0018 27.66                             110   -0.0110 38.0 2614
 R9       S   2   0018 33.14                             110   -0.11 5 38.0 2614
 R13      P   0 D 0018 28.07                             108    0.0010 40.9 2944
 R13      S   2   0018 33.98                             108    0.05 5 40.9 2944
 R5       P   0 U 0018 28.90                             104   -0.0110 46.9 2334
 R5       S   2   0018 35.33                             104   -0.07 5 46.9 2334
 R3       P   0 U 0018 29.35                             103   -0.0410 50.3 1824
 R3       S   2   0018 36.37                             103    0.15 5 50.3 1824
 R4       P   0 D 0018 29.67                             102   -0.0910 52.9 1624
 R4       S   2   0018 37.01                             102    0.14 5 52.9 1624
 R2       P   0 U 0018 29.96                             101    0.0510 53.9 2014
 R2       S   2   0018 37.15                             101    0.03 5 53.9 2014
 R1       P   0 U 0018 31.20                              99    0.00 9 62.8 2174
 R1       S   2   0018 39.47                              99    0.11 5 62.8 2174
                                                                                
 2016  1 1 0018 40.0 L  36.030  51.863 21.7  SYN 13 0.1                        1
 GAP= 72        0.21       0.6     0.9  1.5 -0.1226E+00 -0.5779E+00  0.1994E+00E
 STAT SP IPHASW D HRMN SECON CODA AMPLIT PERI AZIMU VELO AIN AR TRES W  DIS CAZ7
 R10      P   0 D 0018 44.07                             155   -0.0110 8.43  234
 R10      S   2   0018 47.12                             155    0.04 5 8.43  234
 R6       P   0 U 0018 44.60                             139    0.0010 14.8 1674
 R6       S   2   0018 47.95                             139   -0.03 5 14.8 1674
 R9       P   0 D 0018 44.77                             135   -0.0310 16.6 2984
 R5       P   0 U 0018 45.19                             127   -0.0410 20.6 2264
 R5       S   2   0018 49.17                             127    0.10 5 20.6 2264
 R11      S   2   0018 49.48                             124   -0.03 5 22.7  704
 R13      S   2   0018 51.90                             110   -0.02 5 33.3 3344
 R15      S   2   0018 52.75                             107    0.02 5 36.7  354
 R2       P   0 U 0018 47.38                             107    0.0310 36.8 1754
 R2       S   2   0018 52.89                             107    0.15 5 36.8 1754
 R1       S   2   0018 53.44                             105    0.03 5 39.5 2024
 R8       P   0 D 0018 48.07                             103   -0.0310 42.0 1104
 R8       S   2   0018 53.96                             103   -0.07 5 42.0 1104
 R3       P   0 D 0018 48.18                             103    0.0210 42.4 1504
 R16      P   0 U 0018 49.17                             100    0.0010 49.4  534
 R16      S   2   0018 56.11                             100    0.22 5 49.4  534
 R4       S   2   0018 56.85                              98   -0.15 5 53.8 1334
                                                                                
 2016  1 1 0019  0.0 L  35.869  51.854 14.9  SYN 15 0.1                        1
 GAP= 67        0.19       0.4     0.7  1.0  0.6342E-01 -0.2590E+00 -0.1374E+00E
 STAT SP IPHASW D HRMN SECON CODA AMPLIT PERI AZIMU VELO AIN AR TRES W  DIS CAZ7
 R6       P   0 D 0019  2.96                             157   -0.0210 5.41  514
 R6       S   2   0019  5.22                             157    0.07 5 5.41  514
 R5       P   0 D 0019  3.84                             127   -0.0310 14.3 2844
 R5       S   2   0019  6.75                             127    0.05 5 14.3 2844
 R2       P   0 U 0019  4.46                             117   -0.0710 19.2 1674
 R2       S   2   0019  7.90                             117    0.07 5 19.2 1674
 R7       P   0 U 0019  5.01                             111    0.0110 22.5  814
 R7       S   2   0019  8.73                             111    0.08 5 22.5  814
 R1       S   2   0019  8.99                             110    0.11 5 23.3 2174
 R10      P   0 D 0019  5.46                             107   -0.0610 25.9   94
 R10      S   2   0019  9.59                             107    0.04 5 25.9   94
 R3       P   0 D 0019  6.04                             104    0.0210 29.1 1304
 R3       S   2   0019 10.33                             104   -0.07 5 29.1 1304
 R11      P   0 U 0019  6.76                             100    0.0010 33.9  414
 R11      S   2   0019 11.56                             100   -0.13 5 33.9  414
 R8       P   0 U 0019  7.77                              98   -0.0210 40.4  854
 R8       S   2   0019 13.39                              98   -0.07 5 40.4  854
 R4       P   0 D 0019  8.41                              96   -0.0110 44.5 1154
 R4       S   2   0019 14.71                              96    0.14 5 44.5 1154
 R12      P   0 U 0019  8.90                              96   -0.0210 47.7  574
 R14      P   0 D 0019  9.06                              96    0.0810 48.0   54
 R14      S   2   0019 15.48                              96   -0.05 5 48.0   54
 R13      S   2   0019 15.95                              95   -0.06 5 49.8 3444
 R15      P   0 U 0019  9.76                              95    0.0510 52.7  254
 R15      S   2   0019 16.92                              95    0.12 5 52.7  254
 R16      P   0 U 0019 11.26                              68    0.00 9 62.5  404
 R16      S   2   0019 19.52                              68    0.04 5 62.5  404
                                                                                
 2016  1 1 0019 20.0 L  36.036  51.941 21.4  SYN 15 0.1                        1
 GAP= 53        0.19       0.5     0.6  1.2 -0.2963E-01 -0.6298E-01  0.9975E-01E
 STAT SP IPHASW D HRMN SECON CODA AMPLIT PERI AZIMU VELO AIN AR TRES W  DIS CAZ7
 R10      S   2   0019 26.97                             156   -0.02 5 7.96 3334
 R6       P   0 U 0019 24.66                             137   -0.0110 15.6 1944
 R6       S   2   0019 28.13                             137    0.05 5 15.6 1944
 R11      P   0 D 0019 24.79                             136    0.0610 16.0  644
 R11      S   2   0019 28.04                             136   -0.13 5 16.0  644
 R7       P   0 U 0019 25.27                             126    0.0110 20.9 1364
 R7       S   2   0019 29.15                             126    0.06 5 20.9 1364
 R9       P   0 D 0019 25.53                             123    0.0210 22.8 2884
 R9       S   2   0019 29.60                             123    0.07 5 22.8 2884
 R5       P   0 U 0019 25.91                             117   -0.0610 26.4 2354
 R15      S   2   0019 31.61                             110   -0.12 5 32.6  264
 R12      S   2   0019 31.91                             109    0.05 5 33.1  784
 R8       P   0 D 0019 27.21                             107   -0.0310 35.8 1154
 R13      P   0 D 0019 27.33                             106    0.0010 36.4 3244
 R2       P   0 U 0019 27.40                             106   -0.0710 37.5 1864
 R2       S   2   0019 32.90                             106   -0.02 5 37.5 1864
 R3       P   0 D 0019 27.84                             104    0.0010 40.0 1594
 R1       P   0 U 0019 28.34                             102    0.0410 43.2 2104
 R1       S   2   0019 34.47                             102    0.13 5 43.2 2104
 R16      P   0 U 0019 28.34                             102   -0.0210 43.6  484
 R16      S   2   0019 34.57                             102    0.12 5 43.6  484
 R4       P   0 D 0019 29.21                              99    0.0110 49.4 1394
 R4       S   2   0019 35.93                              99    0.01 5 49.4 1394
                                                                                
