 2016  1 1 0003  0.0 L  35.936  51.867  4.9  SYN 15 0.1                        1
 GAP= 65        0.20       0.4     0.6  0.8 -0.1330E-01 -0.1233E+00 -0.1209E+00E
 STAT SP IPHASW D HRMN SECON CODA AMPLIT PERI AZIMU VELO AIN AR TRES W  DIS CAZ7
 R6       P   0 U 0003  1.60                             128    0.0710 4.96 1434
 R6       S   2   0003  2.39                             128   -0.23 5 4.96 1434
 R5       S   2   0003  5.96                              96   -0.04 5 15.6 2554
 R10      P   0 U 0003  4.07                              95    0.0610 18.4   94
 R10      S   2   0003  7.01                              95    0.08 5 18.4   94
 R7       P   0 D 0003  4.56                              94   -0.0210 21.4 1014
 R9       S   2   0003  8.76                              93    0.07 5 23.6 3204
 R2       P   0 D 0003  5.50                              93   -0.0310 26.3 1744
 R2       S   2   0003  9.69                              93    0.14 5 26.3 1744
 R11      P   0 U 0003  5.76                              93   -0.0610 27.8  494
 R11      S   2   0003 10.08                              93    0.03 5 27.8  494
 R1       P   0 U 0003  6.28                              92    0.0010 30.2 2104
 R1       S   2   0003 10.79                              92   -0.06 5 30.2 2104
 R3       P   0 D 0003  6.95                              92    0.0210 33.6 1414
 R8       P   0 D 0003  7.90                              64   -0.0610 39.3  964
 R8       S   2   0003 13.85                              64    0.10 5 39.3  964
 R14      S   2   0003 14.05                              64   -0.07 5 40.5   44
 R12      P   0 U 0003  8.61                              64    0.0110 43.0  654
 R15      P   0 U 0003  9.01                              64   -0.0110 45.5  274
 R15      S   2   0003 15.52                              64   -0.07 5 45.5  274
 R4       S   2   0003 16.19                              64    0.12 5 47.0 1244
 R16      P   0 U 0003 10.85                              56   -0.0110 56.1  444
 R16      S   2   0003 18.80                              56    0.03 5 56.1  444
                                                                                
 2016  1 1 0003 20.0 L  36.092  52.152 11.8  SYN 13 0.1                        1
 GAP= 62        0.21       0.5     0.7  0.9  0.5123E-01  0.2495E+00  0.7892E-01E
 STAT SP IPHASW D HRMN SECON CODA AMPLIT PERI AZIMU VELO AIN AR TRES W  DIS CAZ7
 R12      P   0 U 0003 23.50                             124    0.0010 13.3  864
 R12      S   2   0003 26.08                             124    0.05 5 13.3  864
 R7       P   0 U 0003 24.80                             109   -0.0110 21.8 1924
 R7       S   2   0003 28.31                             109    0.02 5 21.8 1924
 R10      P   0 D 0003 24.93                             108   -0.0310 22.7 2724
 R15      P   0 D 0003 25.11                             107    0.0110 23.6 3494
 R8       P   0 D 0003 25.32                              67   -0.0410 25.1 1484
 R16      S   2   0003 29.71                              67    0.04 5 26.7  304
 R6       P   0 U 0003 26.27                              67   -0.0310 31.1 2274
 R6       S   2   0003 30.97                              67    0.09 5 31.1 2274
 R14      P   0 D 0003 26.51                              67    0.0010 32.4 3164
 R9       P   0 D 0003 27.86                              67    0.0110 40.7 2714
 R9       S   2   0003 33.57                              67    0.02 5 40.7 2714
 R4       P   0 D 0003 28.68                              67    0.0910 45.5 1634
 R4       S   2   0003 34.64                              67   -0.19 5 45.5 1634
 R5       S   2   0003 34.96                              67   -0.01 5 46.0 2434
 R13      P   0 D 0003 28.76                              67   -0.0410 46.8 3004
 R1       S   2   0003 38.82                              67    0.10 5 59.6 2234
                                                                                
 2016  1 1 0003 40.0 L  36.081  52.179  7.4  SYN 14 0.1                        1
 GAP= 72        0.19       0.4     0.5  0.6  0.2395E-01  0.4301E-01  0.5198E-01E
 STAT SP IPHASW D HRMN SECON CODA AMPLIT PERI AZIMU VELO AIN AR TRES W  DIS CAZ7
 R11      P   0 D 0003 42.13                             131   -0.0610 7.39 2874
 R11      S   2   0003 43.93                             131    0.15 5 7.39 2874
 R12      P   0 U 0003 42.77                             118   -0.0110 11.1  794
 R8       P   0 D 0003 44.89                              64   -0.0110 22.8 1514
 R8       S   2   0003 48.44                              64   -0.02 5 22.8 1514
 R10      P   0 D 0003 45.33                              64    0.0410 25.2 2754
 R10      S   2   0003 49.12                              64   -0.02 5 25.2 2754
 R15      P   0 D 0003 45.37                              64    0.0510 25.3 3444
 R15      S   2   0003 49.11                              64   -0.09 5 25.3 3444
 R16      P   0 U 0003 45.63                              64    0.0710 26.7  244
 R16      S   2   0003 49.53                              64   -0.08 5 26.7  244
 R14      P   0 D 0003 46.95                              64   -0.0310 34.9 3144
 R3       P   0 D 0003 48.39                              64    0.0510 42.8 1904
 R3       S   2   0003 54.30                              64   -0.12 5 42.8 1904
 R9       P   0 D 0003 48.37                              64   -0.0410 43.1 2734
 R9       S   2   0003 54.63                              64    0.09 5 43.1 2734
 R4       P   0 D 0003 48.47                              64   -0.0110 43.6 1654
 R4       S   2   0003 54.73                              64    0.07 5 43.6 1654
 R5       P   0 U 0003 49.17                              64    0.0110 47.6 2454
 R5       S   2   0003 55.97                              64    0.13 5 47.6 2454
 R2       P   0 U 0003 49.41                              64   -0.0110 49.1 2114
 R2       S   2   0003 56.21                              64   -0.08 5 49.1 2114
 R13      P   0 D 0003 49.43                              64   -0.0610 49.4 3004
 R1       P   0 U 0003 51.27                              56    0.02 9 60.4 2264
                                                                                
 2016  1 1 0004  0.1 L  36.090  51.815 18.8  SYN 15 0.1                        1
 GAP= 70        0.20       0.5     0.8  1.2 -0.6709E-01 -0.3116E+00  0.1782E+00E
 STAT SP IPHASW D HRMN SECON CODA AMPLIT PERI AZIMU VELO AIN AR TRES W  DIS CAZ7
 R10      P   0 D 0004  3.72                             153   -0.0210 7.75  824
 R10      S   2   0004  6.41                             153   -0.02 5 7.75  824
 R9       P   0 D 0004  3.97                             144    0.0110 10.4 2764
 R6       P   0 U 0004  5.32                             116    0.0210 22.4 1604
 R6       S   2   0004  9.24                             116    0.10 5 22.4 1604
 R5       P   0 U 0004  5.54                             114    0.0910 23.5 2064
 R5       S   2   0004  9.28                             114   -0.12 5 23.5 2064
 R14      S   2   0004  9.73                             112    0.08 5 24.5  184
 R13      P   0 D 0004  5.77                             110    0.0310 25.5 3364
 R7       P   0 D 0004  6.80                              99   -0.0210 33.2 1294
 R7       S   2   0004 11.60                              99   -0.17 5 33.2 1294
 R15      P   0 U 0004  6.97                              98   -0.0610 34.7  484
 R12      P   0 U 0004  8.35                              93   -0.0110 43.7  884
 R12      S   2   0004 14.57                              93    0.15 5 43.7  884
 R2       P   0 D 0004  8.36                              93   -0.0310 43.9 1704
 R2       S   2   0004 14.58                              93    0.11 5 43.9 1704
 R1       P   0 U 0004  8.47                              93   -0.0110 44.5 1944
 R1       S   2   0004 14.58                              93   -0.05 5 44.5 1944
 R8       S   2   0004 15.71                              92    0.04 5 48.5 1164
 R16      S   2   0004 15.92                              92    0.02 5 49.5  624
 R3       P   0 D 0004  9.30                              92   -0.0410 50.3 1494
 R3       S   2   0004 16.09                              92   -0.03 5 50.3 1494
 R4       S   2   0004 19.08                              91    0.11 5 61.5 1344
                                                                                
 2016  1 1 0004 20.0 L  36.160  52.077 18.8  SYN 16 0.1                        1
 GAP= 56        0.19       0.5     0.7  1.1  0.6618E-01  0.2234E+00  0.2752E+00E
 STAT SP IPHASW D HRMN SECON CODA AMPLIT PERI AZIMU VELO AIN AR TRES W  DIS CAZ7
 R11      P   0 U 0004 23.68                             155    0.0010 6.95 1634
 R11      S   2   0004 26.27                             155   -0.07 5 6.95 1634
 R15      P   0 D 0004 24.36                             130   -0.0910 15.7   74
 R15      S   2   0004 27.68                             130    0.01 5 15.7   74
 R10      P   0 U 0004 24.64                             126    0.0010 17.3 2474
 R10      S   2   0004 28.13                             126    0.13 5 17.3 2474
 R12      S   2   0004 28.85                             118    0.03 5 21.1 1084
 R14      P   0 D 0004 25.28                             116    0.0110 22.3 3144
 R14      S   2   0004 29.05                             116   -0.05 5 22.3 3144
 R16      S   2   0004 29.94                             110    0.12 5 25.3  524
 R7       P   0 U 0004 26.21                             105    0.0310 28.9 1764
 R7       S   2   0004 30.75                             105    0.08 5 28.9 1764
 R6       P   0 U 0004 26.75                              99   -0.0210 33.0 2094
 R6       S   2   0004 31.59                              99   -0.09 5 33.0 2094
 R9       S   2   0004 32.27                              98    0.14 5 34.6 2594
 R8       P   0 D 0004 27.15                              97    0.0610 35.1 1454
 R13      P   0 D 0004 27.46                              96    0.0510 37.3 2954
 R5       P   0 U 0004 28.46                              93   -0.0210 44.6 2304
 R5       S   2   0004 34.71                              93    0.07 5 44.6 2304
 R3       P   0 U 0004 29.42                              92   -0.0110 51.1 1784
 R2       P   0 U 0004 29.71                              92   -0.0610 53.5 1974
 R2       S   2   0004 36.80                              92   -0.08 5 53.5 1974
 R4       S   2   0004 37.26                              92    0.02 5 54.8 1584
 R1       P   0 U 0004 30.89                              91   -0.05 9 61.3 2144
 R1       S   2   0004 38.92                              91    0.02 5 61.3 2144
                                                                                
 2016  1 1 0004 40.0 L  36.088  52.030  2.0  SYN 12 0.1                        1
 GAP= 72        0.21       0.4     0.5  1.1 -0.1407E-01 -0.2506E+00  0.1395E+00E
 STAT SP IPHASW D HRMN SECON CODA AMPLIT PERI AZIMU VELO AIN AR TRES W  DIS CAZ7
 R10      P   0 D 0004 42.62                             100   -0.0110 11.8 2774
 R10      S   2   0004 44.51                             100   -0.05 5 11.8 2774
 R7       P   0 D 0004 44.81                              60   -0.0210 21.8 1634
 R6       P   0 D 0004 45.32                              60    0.0910 23.9 2094
 R12      P   0 U 0004 45.30                              60   -0.0310 24.4  874
 R12      S   2   0004 49.32                              60    0.09 5 24.4  874
 R14      S   2   0004 49.92                              60    0.04 5 26.3 3344
 R9       P   0 D 0004 46.41                              60    0.0310 29.7 2734
 R9       S   2   0004 50.96                              60   -0.08 5 29.7 2734
 R16      P   0 U 0004 47.18                              60    0.0210 33.8  464
 R16      S   2   0004 52.36                              60   -0.03 5 33.8  464
 R13      P   0 D 0004 47.91                              60   -0.0210 37.9 3094
 R3       P   0 D 0004 48.95                              51   -0.0510 43.5 1724
 R3       S   2   0004 55.66                              51    0.08 5 43.5 1724
 R2       P   0 D 0004 49.19                              51    0.0110 44.6 1954
 R2       S   2   0004 55.96                              51    0.06 5 44.6 1954
 R4       P   0 D 0004 50.06                              51    0.0310 49.4 1504
 R4       S   2   0004 57.16                              51   -0.20 5 49.4 1504
 R1       P   0 D 0004 50.49                              51   -0.0310 52.3 2154
                                                                                
 2016  1 1 0005  0.0 L  36.072  52.157  2.1  SYN 16 0.1                        1
 GAP= 69        0.19       0.3     0.4  0.6  0.2296E-01  0.3937E-01  0.4577E-01E
 STAT SP IPHASW D HRMN SECON CODA AMPLIT PERI AZIMU VELO AIN AR TRES W  DIS CAZ7
 R11      P   0 D 0005  1.42                             109   -0.0210 6.00 3014
 R11      S   2   0005  2.58                             109    0.11 5 6.00 3014
 R12      P   0 U 0005  2.96                              99   -0.0310 13.2  774
 R7       P   0 U 0005  4.40                              96   -0.0410 19.8 1954
 R8       P   0 D 0005  5.18                              60    0.0710 23.0 1464
 R8       S   2   0005  8.81                              60   -0.02 5 23.0 1464
 R10      P   0 D 0005  5.07                              60   -0.0910 23.4 2784
 R15      P   0 U 0005  5.65                              60    0.0210 25.8 3484
 R15      S   2   0005  9.58                              60   -0.14 5 25.8 3484
 R16      P   0 U 0005  6.14                              60    0.0110 28.3  274
 R6       P   0 U 0005  6.43                              60   -0.0210 30.1 2314
 R6       S   2   0005 11.12                              60   -0.03 5 30.1 2314
 R14      P   0 U 0005  7.29                              60    0.0210 34.2 3184
 R9       P   0 D 0005  8.68                              60    0.0510 41.3 2744
 R3       P   0 D 0005  8.71                              60    0.0210 41.6 1874
 R3       S   2   0005 14.91                              60   -0.10 5 41.6 1874
 R4       P   0 D 0005  8.97                              51   -0.0210 43.3 1634
 R4       S   2   0005 15.63                              51    0.09 5 43.3 1634
 R5       P   0 D 0005  9.38                              51    0.0110 45.4 2454
 R5       S   2   0005 16.32                              51    0.13 5 45.4 2454
 R2       P   0 D 0005  9.69                              51    0.0010 47.4 2094
 R13      P   0 U 0005  9.84                              51   -0.0110 48.3 3024
 R13      S   2   0005 17.03                              51    0.00 5 48.3 3024
 R1       P   0 D 0005 11.63                              51    0.03 9 58.4 2254
 R1       S   2   0005 20.04                              51   -0.01 5 58.4 2254
                                                                                
 2016  1 1 0005 20.0 L  36.136  52.067 23.1  SYN 15 0.1                        1
 GAP= 88        0.20       0.6     0.7  1.3  0.9689E-01  0.1371E+00  0.2095E+00E
 STAT SP IPHASW D HRMN SECON CODA AMPLIT PERI AZIMU VELO AIN AR TRES W  DIS CAZ7
 R11      P   0 U 0005 24.17                             166   -0.0110 4.96 1434
 R11      S   2   0005 27.22                             166    0.01 5 4.96 1434
 R10      P   0 U 0005 24.85                             140   -0.0410 15.5 2554
 R10      S   2   0005 28.57                             140    0.14 5 15.5 2554
 R12      S   2   0005 29.42                             129   -0.07 5 21.3 1014
 R14      P   0 D 0005 25.73                             126   -0.0410 23.6 3214
 R14      S   2   0005 29.79                             126   -0.17 5 23.6 3214
 R7       P   0 U 0005 26.08                             122   -0.0110 26.3 1744
 R16      P   0 U 0005 26.35                             120    0.0710 27.8  494
 R6       P   0 U 0005 26.61                             117    0.0210 30.2 2104
 R6       S   2   0005 31.33                             117   -0.05 5 30.2 2104
 R9       P   0 U 0005 27.03                             114    0.0110 33.3 2634
 R9       S   2   0005 32.21                             114    0.09 5 33.3 2634
 R8       P   0 D 0005 27.00                             113   -0.0510 33.5 1414
 R8       S   2   0005 32.28                             113    0.11 5 33.5 1414
 R13      P   0 D 0005 27.66                             110    0.0510 37.7 2994
 R13      S   2   0005 33.23                             110    0.08 5 37.7 2994
 R5       P   0 U 0005 28.23                             107   -0.0110 42.2 2324
 R5       S   2   0005 34.16                             107   -0.07 5 42.2 2324
 R3       P   0 U 0005 29.13                             103    0.0010 48.4 1764
 R3       S   2   0005 35.80                             103    0.03 5 48.4 1764
 R2       P   0 U 0005 29.37                             102   -0.0710 50.6 1974
 R4       S   2   0005 36.98                             101    0.14 5 52.7 1564
 R1       S   2   0005 38.41                              99    0.10 5 58.6 2154
                                                                                
