 2016  1 1 0005 40.0 L  36.060  52.019  9.6  SYN 16 0.1                        1
 GAP= 45        0.18       0.3     0.4  0.9  0.2764E-03  0.1580E-01  0.8866E-01E
 STAT SP IPHASW D HRMN SECON CODA AMPLIT PERI AZIMU VELO AIN AR TRES W  DIS CAZ7
 R11      P   0 D 0005 42.54                             131   -0.0710 8.57  584
 R11      S   2   0005 44.51                             131    0.01 5 8.57  584
 R10      P   0 D 0005 43.06                             119    0.0310 11.6 2934
 R10      S   2   0005 45.19                             119   -0.04 5 11.6 2934
 R7       P   0 D 0005 44.25                             103    0.0010 19.1 1584
 R7       S   2   0005 47.40                             103    0.06 5 19.1 1584
 R6       P   0 U 0005 44.53                             101    0.0210 20.7 2114
 R6       S   2   0005 47.71                             101   -0.08 5 20.7 2114
 R12      P   0 U 0005 45.44                              97    0.0810 25.7  804
 R12      S   2   0005 49.33                              97    0.06 5 25.7  804
 R15      P   0 U 0005 45.76                              96    0.0610 27.6  154
 R15      S   2   0005 49.85                              96    0.01 5 27.6  154
 R14      P   0 D 0005 45.82                              96   -0.0710 28.7 3384
 R14      S   2   0005 50.12                              96   -0.06 5 28.7 3384
 R9       P   0 D 0005 46.02                              96    0.0610 29.1 2794
 R8       P   0 D 0005 46.23                              95   -0.0410 30.9 1254
 R8       S   2   0005 50.92                              95    0.09 5 30.9 1254
 R5       P   0 U 0005 46.85                              95    0.0910 33.8 2384
 R5       S   2   0005 51.63                              95   -0.05 5 33.8 2384
 R16      P   0 U 0005 47.27                              94    0.0010 36.7  434
 R16      S   2   0005 52.50                              94   -0.06 5 36.7  434
 R13      P   0 D 0005 47.68                              94   -0.0110 39.2 3134
 R13      S   2   0005 53.21                              94   -0.07 5 39.2 3134
 R3       P   0 D 0005 47.92                              93    0.0010 40.6 1704
 R3       S   2   0005 53.58                              93   -0.11 5 40.6 1704
 R2       P   0 U 0005 48.02                              93   -0.0210 41.3 1954
 R2       S   2   0005 53.89                              93   -0.01 5 41.3 1954
 R4       P   0 D 0005 49.00                              67   -0.0110 47.3 1474
 R4       S   2   0005 55.51                              67   -0.06 5 47.3 1474
 R1       P   0 U 0005 49.26                              67   -0.0610 49.2 2164
 R1       S   2   0005 56.21                              67    0.11 5 49.2 2164
                                                                                
 2016  1 1 0006  0.0 L  35.919  52.082  9.1  SYN 16 0.1                        1
 GAP= 52        0.18       0.4     0.5  0.7 -0.1500E-01  0.4917E-01 -0.1102E+00E
 STAT SP IPHASW D HRMN SECON CODA AMPLIT PERI AZIMU VELO AIN AR TRES W  DIS CAZ7
 R7       P   0 U 0006  1.96                             161    0.0310 2.67 1424
 R7       S   2   0006  3.36                             161    0.03 5 2.67 1424
 R6       P   0 U 0006  3.75                             103   -0.0410 16.5 2634
 R6       S   2   0006  6.57                             103    0.03 5 16.5 2634
 R8       S   2   0006  7.44                              98   -0.07 5 19.8  964
 R11      P   0 D 0006  4.35                              98   -0.0610 20.1   54
 R11      S   2   0006  7.62                              98    0.00 5 20.1   54
 R3       P   0 U 0006  5.15                              95    0.0210 24.3 1764
 R3       S   2   0006  8.74                              95   -0.12 5 24.3 1764
 R10      S   2   0006  9.40                              95    0.09 5 25.9 3214
 R12      P   0 U 0006  5.77                              94    0.0010 28.1  444
 R12      S   2   0006 10.06                              94    0.10 5 28.1  444
 R2       S   2   0006 10.48                              94    0.16 5 29.3 2144
 R4       P   0 D 0006  6.36                              93    0.0410 31.3 1414
 R4       S   2   0006 10.88                              93   -0.04 5 31.3 1414
 R5       S   2   0006 11.85                              93   -0.04 5 34.5 2674
 R9       S   2   0006 13.45                              92   -0.04 5 39.8 3004
 R1       P   0 U 0006  8.16                              92   -0.0410 42.2 2354
 R1       S   2   0006 14.13                              92   -0.04 5 42.2 2354
 R15      S   2   0006 14.10                              92   -0.09 5 42.3   24
 R14      P   0 D 0006  8.79                              67    0.0510 45.3 3394
 R14      S   2   0006 15.14                              67    0.04 5 45.3 3394
 R16      P   0 U 0006  8.89                              67   -0.0510 46.6  254
 R16      S   2   0006 15.51                              67    0.05 5 46.6  254
 R13      P   0 D 0006 10.21                              67    0.0210 54.5 3214
 R13      S   2   0006 17.64                              67    0.02 5 54.5 3214
                                                                                
 2016  1 1 0006 19.9 L  36.131  51.953  7.0  SYN 11 0.1                        1
 GAP= 86        0.23       0.7     0.7  1.5 -0.2074E+00 -0.5704E+00  0.7527E+00E
 STAT SP IPHASW D HRMN SECON CODA AMPLIT PERI AZIMU VELO AIN AR TRES W  DIS CAZ7
 R15      P   0 U 0006 24.84                             100    0.0310 22.9  354
 R15      S   2   0006 28.46                             100    0.08 5 22.9  354
 R9       P   0 U 0006 24.94                             100    0.0710 23.1 2614
 R9       S   2   0006 28.32                             100   -0.16 5 23.1 2614
 R7       S   2   0006 30.42                              64    0.20 5 28.9 1534
 R13      S   2   0006 30.44                              64    0.02 5 29.5 3094
 R12      P   0 D 0006 26.27                              64   -0.0410 31.4  964
 R12      S   2   0006 30.99                              64    0.01 5 31.4  964
 R16      P   0 U 0006 27.14                              64   -0.0410 36.3  594
 R8       P   0 D 0006 27.91                              64    0.0310 40.4 1294
 R8       S   2   0006 33.64                              64   -0.05 5 40.4 1294
 R2       S   2   0006 36.08                              64    0.12 5 48.1 1864
 R3       P   0 D 0006 29.44                              64   -0.0310 49.6 1644
 R1       P   0 D 0006 29.99                              56   -0.0510 53.0 2064
 R4       P   0 D 0006 30.65                              56   -0.0510 57.2 1474
 R4       S   2   0006 38.60                              56    0.03 5 57.2 1474
                                                                                
 2016  1 1 0006 40.0 L  35.899  52.078  7.4  SYN 16 0.1                        1
 GAP= 48        0.18       0.3     0.4  0.6  0.5834E-03  0.4147E-01 -0.2604E-01E
 STAT SP IPHASW D HRMN SECON CODA AMPLIT PERI AZIMU VELO AIN AR TRES W  DIS CAZ7
 R7       S   2   0006 42.75                             164   -0.01 5 1.97  864
 R6       P   0 D 0006 43.69                             108    0.0510 16.1 2714
 R6       S   2   0006 46.24                             108   -0.06 5 16.1 2714
 R8       P   0 U 0006 44.39                             104    0.0110 20.0  904
 R8       S   2   0006 47.59                             104    0.01 5 20.0  904
 R3       P   0 D 0006 44.77                              64    0.0010 22.1 1754
 R3       S   2   0006 48.13                              64   -0.11 5 22.1 1754
 R11      P   0 U 0006 44.87                              64    0.0510 22.4   54
 R11      S   2   0006 48.38                              64    0.05 5 22.4   54
 R2       P   0 U 0006 45.62                              64   -0.0310 27.3 2164
 R2       S   2   0006 49.85                              64    0.08 5 27.3 2164
 R10      P   0 D 0006 45.70                              64    0.0110 27.5 3244
 R10      S   2   0006 49.94                              64    0.11 5 27.5 3244
 R4       P   0 D 0006 46.13                              64    0.0410 29.8 1384
 R4       S   2   0006 50.61                              64    0.08 5 29.8 1384
 R12      P   0 U 0006 46.09                              64   -0.0210 30.0  424
 R5       P   0 D 0006 46.80                              64   -0.0410 34.1 2704
 R5       S   2   0006 51.77                              64   -0.06 5 34.1 2704
 R1       S   2   0006 53.77                              64   -0.01 5 40.7 2374
 R9       P   0 D 0006 47.97                              64   -0.0210 40.8 3034
 R9       S   2   0006 53.87                              64    0.05 5 40.8 3034
 R15      P   0 U 0006 48.59                              64   -0.0410 44.6   34
 R15      S   2   0006 54.89                              64   -0.03 5 44.6   34
 R14      P   0 U 0006 49.09                              64   -0.0210 47.3 3404
 R14      S   2   0006 55.69                              64   -0.07 5 47.3 3404
 R16      P   0 U 0006 49.26                              64   -0.1110 48.8  244
 R16      S   2   0006 56.29                              64    0.09 5 48.8  244
 R13      P   0 U 0006 50.65                              56    0.0910 56.1 3234
 R13      S   2   0006 58.23                              56   -0.03 5 56.1 3234
                                                                                
 2016  1 1 0007  0.0 L  36.083  52.132 19.9  SYN 14 0.1                        1
 GAP= 60        0.21       0.6     0.9  1.8  0.1909E+00  0.5638E+00  0.3198E+00E
 STAT SP IPHASW D HRMN SECON CODA AMPLIT PERI AZIMU VELO AIN AR TRES W  DIS CAZ7
 R12      S   2   0007  7.92                             134    0.15 5 15.3  834
 R7       S   2   0007  8.79                             123   -0.03 5 20.5 1884
 R10      P   0 D 0007  5.23                             122    0.0710 21.0 2754
 R10      S   2   0007  8.67                             122   -0.25 5 21.0 2754
 R15      P   0 D 0007  5.54                             116   -0.0410 24.2 3534
 R8       P   0 D 0007  5.71                             115   -0.0310 25.3 1434
 R8       S   2   0007  9.85                             115   -0.07 5 25.3 1434
 R16      S   2   0007 10.61                             110   -0.03 5 28.4  324
 R6       P   0 U 0007  6.29                             109    0.0410 29.1 2264
 R14      P   0 D 0007  6.67                             106    0.0310 31.8 3194
 R14      S   2   0007 11.56                             106    0.09 5 31.8 3194
 R3       P   0 U 0007  8.14                              98   -0.0510 42.6 1844
 R3       S   2   0007 14.24                              98    0.09 5 42.6 1844
 R5       P   0 U 0007  8.38                              97    0.0010 43.9 2434
 R4       P   0 D 0007  8.54                              97   -0.0210 45.1 1604
 R4       S   2   0007 14.89                              97    0.10 5 45.1 1604
 R13      P   0 D 0007  8.62                              96   -0.0210 45.7 3024
 R13      S   2   0007 14.91                              96   -0.02 5 45.7 3024
 R2       P   0 U 0007  8.87                              96    0.0010 47.4 2064
 R1       S   2   0007 17.99                              94    0.03 5 57.7 2234
                                                                                
 2016  1 1 0007 20.0 L  36.013  51.985  8.9  SYN 15 0.1                        1
 GAP= 47        0.19       0.3     0.5  1.9 -0.3479E-02  0.9460E-02  0.7493E-01E
 STAT SP IPHASW D HRMN SECON CODA AMPLIT PERI AZIMU VELO AIN AR TRES W  DIS CAZ7
 R10      P   0 D 0007 23.02                             112   -0.0510 12.3 3224
 R10      S   2   0007 25.36                             112    0.05 5 12.3 3224
 R11      P   0 U 0007 23.44                             107    0.0510 14.1  474
 R11      S   2   0007 25.83                             107   -0.02 5 14.1  474
 R6       P   0 U 0007 23.44                             105   -0.0310 14.7 2114
 R6       S   2   0007 25.99                             105    0.00 5 14.7 2114
 R7       P   0 D 0007 23.71                             102   -0.0210 16.3 1404
 R7       S   2   0007 26.47                             102    0.02 5 16.3 1404
 R9       S   2   0007 29.89                              93    0.11 5 27.4 2914
 R5       P   0 U 0007 25.90                              93    0.0510 28.6 2444
 R5       S   2   0007 30.18                              93    0.07 5 28.6 2444
 R12      S   2   0007 30.38                              93   -0.13 5 30.0  714
 R8       P   0 D 0007 26.27                              93   -0.0110 31.1 1144
 R8       S   2   0007 30.93                              93    0.08 5 31.1 1144
 R14      P   0 D 0007 26.57                              93    0.0110 32.7 3474
 R14      S   2   0007 31.25                              93   -0.10 5 32.7 3474
 R15      P   0 U 0007 26.73                              92    0.0510 33.5  184
 R15      S   2   0007 31.48                              92   -0.07 5 33.5  184
 R2       P   0 D 0007 27.02                              92   -0.0210 35.6 1924
 R2       S   2   0007 32.36                              92    0.18 5 35.6 1924
 R3       P   0 D 0007 27.18                              92    0.0110 36.3 1634
 R3       S   2   0007 32.46                              92    0.06 5 36.3 1634
 R13      P   0 D 0007 27.94                              92   -0.0310 40.9 3214
 R13      S   2   0007 33.85                              92    0.08 5 40.9 3214
 R16      S   2   0007 34.34                              92    0.05 5 42.6  424
 R1       P   0 U 0007 28.29                              92   -0.0810 43.2 2174
 R1       S   2   0007 34.41                              92   -0.06 5 43.2 2174
                                                                                
 2016  1 1 0007 40.0 L  35.951  52.179 18.5  SYN 16 0.1                        1
 GAP= 84        0.18       0.4     0.7  1.0 -0.7176E-01  0.2595E+00 -0.7825E-01E
 STAT SP IPHASW D HRMN SECON CODA AMPLIT PERI AZIMU VELO AIN AR TRES W  DIS CAZ7
 R7       P   0 U 0007 43.77                             148    0.0110 9.12 2324
 R7       S   2   0007 46.39                             148   -0.10 5 9.12 2324
 R8       S   2   0007 46.98                             138   -0.02 5 12.3 1174
 R11      P   0 D 0007 44.65                             124   -0.0310 18.0 3374
 R11      S   2   0007 48.10                             124    0.00 5 18.0 3374
 R12      P   0 D 0007 44.87                             120   -0.0310 19.8  334
 R12      S   2   0007 48.57                             120    0.10 5 19.8  334
 R6       P   0 U 0007 45.80                             108    0.0910 25.8 2574
 R6       S   2   0007 49.95                             108    0.08 5 25.8 2574
 R3       P   0 U 0007 46.12                             103   -0.0110 28.7 1944
 R3       S   2   0007 50.62                             103    0.02 5 28.7 1944
 R4       S   2   0007 50.87                             101   -0.02 5 29.9 1594
 R10      P   0 D 0007 46.36                             101    0.0410 30.1 3034
 R10      S   2   0007 50.85                             101   -0.07 5 30.1 3034
 R2       P   0 U 0007 47.41                              94    0.0010 37.6 2224
 R2       S   2   0007 52.93                              94    0.12 5 37.6 2224
 R15      P   0 D 0007 47.74                              93    0.0710 39.4 3504
 R15      S   2   0007 53.31                              93    0.04 5 39.4 3504
 R16      P   0 U 0007 47.80                              93   -0.0110 40.2  164
 R16      S   2   0007 53.50                              93    0.00 5 40.2  164
 R5       P   0 U 0007 48.32                              92    0.0110 43.6 2634
 R5       S   2   0007 54.36                              92    0.00 5 43.6 2634
 R9       S   2   0007 54.93                              92   -0.12 5 46.2 2914
 R14      P   0 D 0007 48.68                              92    0.0010 46.2 3274
 R9       P   0 D 0007 48.68                              92   -0.0210 46.2 2914
 R14      S   2   0007 54.92                              92   -0.09 5 46.2 3274
 R1       P   0 U 0007 49.35                              91   -0.1110 51.5 2374
 R1       S   2   0007 56.46                              91    0.10 5 51.5 2374
 R13      P   0 D 0007 50.37                              91   -0.05 9 58.0 3124
 R13      S   2   0007 58.07                              91    0.06 5 58.0 3124
                                                                                
 2016  1 1 0008  0.0 L  35.870  52.117 17.6  SYN 13 0.1                        1
 GAP= 60        0.21       0.6     0.8  1.0 -0.1717E+00  0.3625E+00 -0.2765E+00E
 STAT SP IPHASW D HRMN SECON CODA AMPLIT PERI AZIMU VELO AIN AR TRES W  DIS CAZ7
 R8       S   2   0008  7.70                             129   -0.03 5 16.8  794
 R3       P   0 U 0008  4.68                             125   -0.0810 18.9 1854
 R6       S   2   0008  8.57                             124    0.17 5 19.9 2804
 R4       P   0 D 0008  5.65                             116    0.0510 25.1 1394
 R11      P   0 D 0008  5.60                             115   -0.0610 25.5 3564
 R2       P   0 U 0008  5.91                             114    0.0110 27.2 2264
 R2       S   2   0008 10.23                             114    0.06 5 27.2 2264
 R12      P   0 U 0008  6.34                             110   -0.0210 30.3  334
 R12      S   2   0008 10.99                             110    0.03 5 30.3  334
 R5       P   0 D 0008  7.52                             105    0.0210 37.8 2754
 R5       S   2   0008 12.81                             105   -0.13 5 37.8 2754
 R1       P   0 U 0008  8.16                              68    0.0110 42.2 2444
 R1       S   2   0008 14.07                              68    0.00 5 42.2 2444
 R9       P   0 D 0008  8.65                              68    0.0010 45.5 3044
 R9       S   2   0008 14.91                              68   -0.01 5 45.5 3044
 R15      P   0 U 0008  9.00                              68    0.0410 47.7 3584
 R15      S   2   0008 15.51                              68    0.05 5 47.7 3584
 R14      P   0 D 0008  9.54                              68    0.0110 51.5 3384
 R13      P   0 D 0008 10.85                              68   -0.03 9 60.7 3224
                                                                                
