 2016  1 1 0000 20.0 L  35.963  51.994 21.5  SYN 16 0.1                        1
 GAP= 45        0.19       0.5     0.6  1.2 -0.3986E-01 -0.6621E-01 -0.4952E-01E
 STAT SP IPHASW D HRMN SECON CODA AMPLIT PERI AZIMU VELO AIN AR TRES W  DIS CAZ7
 R6       P   0 U 0000 24.31                             148    0.0210 10.9 2304
 R6       S   2   0000 27.33                             148   -0.07 5 10.9 2304
 R7       S   2   0000 27.62                             145    0.10 5 11.9 1264
 R10      S   2   0000 28.39                             133   -0.05 5 17.4 3314
 R11      P   0 D 0000 24.95                             132   -0.0110 18.0  324
 R11      S   2   0000 28.52                             132   -0.05 5 18.0  324
 R5       P   0 U 0000 26.13                             116    0.0210 27.4 2554
 R5       S   2   0000 30.53                             116   -0.03 5 27.4 2554
 R8       S   2   0000 30.83                             115    0.01 5 28.5 1044
 R2       S   2   0000 31.08                             113   -0.15 5 30.4 1964
 R9       S   2   0000 31.38                             113    0.08 5 30.5 3004
 R3       S   2   0000 31.40                             112    0.07 5 30.7 1624
 R12      P   0 U 0000 26.63                             111   -0.0310 31.5  614
 R12      S   2   0000 31.58                             111    0.07 5 31.5  614
 R14      P   0 D 0000 27.62                             105    0.0010 38.3 3474
 R14      S   2   0000 33.25                             105    0.08 5 38.3 3474
 R15      S   2   0000 33.31                             105    0.09 5 38.6  144
 R1       P   0 U 0000 27.77                             104   -0.0110 39.4 2224
 R1       S   2   0000 33.50                             104    0.06 5 39.4 2224
 R4       P   0 D 0000 27.84                             104   -0.0510 40.2 1364
 R4       S   2   0000 33.81                             104    0.18 5 40.2 1364
 R13      S   2   0000 35.05                             101    0.03 5 45.8 3254
 R16      P   0 U 0000 28.73                             100   -0.0610 46.5  364
 R16      S   2   0000 35.25                             100    0.06 5 46.5  364
                                                                                
 2016  1 1 0000 40.0 L  35.814  51.855 10.0  SYN 16 0.1                        1
 GAP= 76        0.20       0.5     0.6  0.8  0.6209E-01 -0.1332E+00 -0.1313E+00E
 STAT SP IPHASW D HRMN SECON CODA AMPLIT PERI AZIMU VELO AIN AR TRES W  DIS CAZ7
 R6       P   0 D 0000 42.82                             125   -0.0610 10.4  234
 R6       S   2   0000 45.01                             125    0.04 5 10.4  234
 R2       P   0 U 0000 43.42                             116    0.1010 13.3 1624
 R5       P   0 D 0000 43.89                             108   -0.0210 16.9 3044
 R5       S   2   0000 46.79                             108    0.05 5 16.9 3044
 R1       P   0 U 0000 44.20                             105   -0.0310 18.9 2284
 R7       P   0 U 0000 45.12                             100    0.0210 24.1  674
 R7       S   2   0000 48.77                             100   -0.04 5 24.1  674
 R3       P   0 D 0000 45.32                              99   -0.0410 25.5 1204
 R3       S   2   0000 49.26                              99    0.01 5 25.5 1204
 R10      P   0 U 0000 46.42                              96   -0.0310 32.0   74
 R9       P   0 D 0000 46.93                              95    0.0010 34.6 3364
 R11      P   0 U 0000 47.63                              94    0.0210 38.7  354
 R8       P   0 U 0000 48.06                              67    0.0210 41.3  774
 R4       P   0 D 0000 48.10                              67   -0.0810 42.2 1074
 R12      S   2   0000 56.67                              67    0.08 5 51.2  524
 R14      P   0 U 0000 50.07                              67    0.0010 54.1   44
 R14      S   2   0000 57.31                              67   -0.09 5 54.1   44
 R13      P   0 U 0000 50.38                              67    0.0610 55.7 3464
 R13      S   2   0000 57.74                              67   -0.10 5 55.7 3464
 R15      P   0 U 0000 50.80                              67    0.08 9 58.2  224
 R15      S   2   0000 58.52                              67   -0.01 5 58.2  224
 R16      P   0 U 0000 52.12                              67   -0.03 9 67.2  374
 R16      S   2   0001  1.11                              67    0.11 4 67.2  374
                                                                                
 2016  1 1 0001  0.1 L  36.106  51.854 22.8  SYN 16 0.0                        1
 GAP= 60        0.19       0.5     0.8  1.3 -0.1084E+00 -0.4114E+00  0.2420E+00E
 STAT SP IPHASW D HRMN SECON CODA AMPLIT PERI AZIMU VELO AIN AR TRES W  DIS CAZ7
 R10      P   0 U 0001  4.12                             168    0.0110 4.17  994
 R9       P   0 U 0001  4.80                             143    0.0610 13.9 2674
 R9       S   2   0001  8.16                             143    0.00 5 13.9 2674
 R14      P   0 D 0001  5.59                             127    0.0210 21.9  114
 R14      S   2   0001  9.66                             127    0.07 5 21.9  114
 R11      P   0 D 0001  5.59                             127    0.0010 22.1  924
 R11      S   2   0001  9.54                             127   -0.09 5 22.1  924
 R6       P   0 U 0001  5.72                             125    0.0210 23.2 1704
 R6       S   2   0001  9.76                             125   -0.07 5 23.2 1704
 R13      P   0 D 0001  5.90                             122   -0.1110 25.6 3274
 R5       P   0 U 0001  6.17                             120    0.0210 26.7 2114
 R5       S   2   0001 10.69                             120    0.09 5 26.7 2114
 R15      P   0 U 0001  6.67                             115   -0.0110 30.9  464
 R15      S   2   0001 11.59                             115    0.07 5 30.9  464
 R7       P   0 D 0001  6.81                             114    0.0110 31.8 1364
 R12      P   0 D 0001  7.90                             107   -0.0510 40.1  914
 R2       P   0 U 0001  8.65                             104   -0.0210 45.2 1754
 R16      P   0 U 0001  8.74                             104    0.0210 45.5  624
 R8       P   0 D 0001  8.90                             103    0.0810 46.2 1194
 R1       P   0 U 0001  8.93                             103   -0.0210 47.1 1974
 R1       S   2   0001 15.42                             103   -0.03 5 47.1 1974
 R3       P   0 D 0001  9.37                             102   -0.0210 50.2 1544
 R3       S   2   0001 16.22                             102    0.01 5 50.2 1544
 R4       P   0 D 0001 10.87                              98    0.00 9 60.4 1384
                                                                                
 2016  1 1 0001 20.0 L  36.071  51.885  4.7  SYN 16 0.0                        1
 GAP= 60        0.17       0.3     0.4  0.6 -0.2137E-01 -0.7757E-01  0.9740E-01E
 STAT SP IPHASW D HRMN SECON CODA AMPLIT PERI AZIMU VELO AIN AR TRES W  DIS CAZ7
 R10      P   0 D 0001 21.25                             138   -0.0310 3.52  224
 R10      S   2   0001 22.26                             138    0.05 5 3.52  224
 R9       P   0 D 0001 23.78                              94    0.0410 17.0 2814
 R9       S   2   0001 26.47                              94    0.00 5 17.0 2814
 R6       P   0 U 0001 24.12                              93    0.0210 19.0 1764
 R11      P   0 U 0001 24.22                              93   -0.0110 19.6  804
 R11      S   2   0001 27.33                              93    0.02 5 19.6  804
 R5       P   0 U 0001 25.25                              92   -0.0610 25.2 2224
 R5       S   2   0001 29.16                              92   -0.02 5 25.2 2224
 R14      P   0 D 0001 25.33                              92   -0.0310 25.5   34
 R14      S   2   0001 29.33                              92    0.06 5 25.5   34
 R7       P   0 D 0001 25.64                              92   -0.0110 27.1 1344
 R13      P   0 D 0001 26.30                              92   -0.0110 30.4 3274
 R13      S   2   0001 31.01                              92    0.10 5 30.4 3274
 R15      P   0 U 0001 26.60                              92    0.0110 31.9  374
 R15      S   2   0001 31.27                              92   -0.12 5 31.9  374
 R12      P   0 U 0001 27.70                              64    0.0610 37.5  854
 R2       S   2   0001 34.23                              64   -0.07 5 41.1 1784
 R8       P   0 D 0001 28.45                              64    0.0410 41.9 1174
 R8       S   2   0001 34.48                              64   -0.07 5 41.9 1174
 R1       P   0 D 0001 28.82                              64   -0.0210 44.4 2024
 R1       S   2   0001 35.28                              64   -0.01 5 44.4 2024
 R16      P   0 U 0001 28.90                              64   -0.0710 45.1  564
 R16      S   2   0001 35.51                              64   -0.01 5 45.1  564
 R3       P   0 D 0001 29.05                              64    0.0310 45.4 1554
 R3       S   2   0001 35.63                              64    0.03 5 45.4 1554
 R4       P   0 D 0001 30.81                              64    0.0410 55.6 1384
 R4       S   2   0001 38.69                              64    0.06 5 55.6 1384
                                                                                
 2016  1 1 0001 40.0 L  36.167  51.968 15.0  SYN 14 0.1                        1
 GAP= 61        0.21       0.6     0.6  1.4 -0.4107E-01 -0.9743E-01  0.2342E+00E
 STAT SP IPHASW D HRMN SECON CODA AMPLIT PERI AZIMU VELO AIN AR TRES W  DIS CAZ7
 R10      P   0 U 0001 43.28                             141   -0.0810 9.68 2194
 R10      S   2   0001 45.81                             141    0.01 5 9.68 2194
 R11      P   0 U 0001 43.83                             128   -0.0310 14.0 1224
 R11      S   2   0001 46.74                             128    0.07 5 14.0 1224
 R14      P   0 D 0001 44.06                             124   -0.0510 15.9 3374
 R15      S   2   0001 47.88                             118    0.11 5 18.9  394
 R9       P   0 U 0001 45.53                             108    0.0810 25.3 2534
 R9       S   2   0001 49.39                             108   -0.03 5 25.3 2534
 R13      S   2   0001 50.25                             105    0.06 5 28.2 3014
 R6       P   0 U 0001 46.20                             103    0.0010 30.3 1924
 R12      S   2   0001 50.95                             103    0.10 5 30.8 1044
 R7       P   0 D 0001 46.44                             102   -0.0210 31.9 1584
 R16      P   0 U 0001 46.67                             101    0.0010 33.2  644
 R16      S   2   0001 51.37                             101   -0.16 5 33.2  644
 R2       S   2   0001 56.65                              95   -0.02 5 52.2 1874
 R3       S   2   0001 56.98                              95    0.02 5 53.2 1674
 R1       P   0 U 0001 50.44                              95   -0.0110 57.2 2054
 R1       S   2   0001 58.17                              95    0.11 5 57.2 2054
 R4       P   0 D 0001 50.92                              94    0.05 9 59.9 1504
 R4       S   2   0001 58.78                              94   -0.01 5 59.9 1504
                                                                                
 2016  1 1 0002  0.0 L  36.023  51.899  8.1  SYN 15 0.1                        1
 GAP= 65        0.20       0.4     0.6  0.9 -0.4089E-01 -0.1122E+00  0.1152E+00E
 STAT SP IPHASW D HRMN SECON CODA AMPLIT PERI AZIMU VELO AIN AR TRES W  DIS CAZ7
 R10      P   0 D 0002  2.48                             129    0.0210 8.57   04
 R6       P   0 U 0002  3.27                              64    0.0010 13.6 1804
 R9       S   2   0002  7.45                              64   -0.10 5 19.9 2964
 R11      S   2   0002  7.66                              64    0.11 5 20.0  654
 R5       S   2   0002  8.44                              64    0.12 5 22.6 2334
 R7       P   0 D 0002  4.75                              64   -0.0810 22.6 1274
 R5       P   0 U 0002  4.85                              64    0.0210 22.6 2334
 R14      P   0 D 0002  6.18                              64   -0.0610 30.8   04
 R14      S   2   0002 10.87                              64    0.11 5 30.8   04
 R15      P   0 U 0002  7.07                              64    0.0010 35.7  304
 R2       P   0 U 0002  7.10                              64    0.0010 35.8 1804
 R12      P   0 U 0002  7.38                              64    0.0610 37.1  774
 R8       P   0 D 0002  7.57                              64   -0.0210 38.6 1114
 R8       S   2   0002 13.11                              64    0.00 5 38.6 1114
 R3       P   0 D 0002  7.87                              64    0.0210 40.1 1534
 R1       P   0 U 0002  7.82                              64   -0.0310 40.1 2074
 R3       S   2   0002 13.49                              64   -0.07 5 40.1 1534
 R16      P   0 U 0002  9.09                              64   -0.0110 47.4  494
 R16      S   2   0002 15.62                              64   -0.10 5 47.4  494
 R4       P   0 D 0002  9.76                              56    0.0510 50.9 1354
 R4       S   2   0002 16.78                              56    0.02 5 50.9 1354
                                                                                
 2016  1 1 0002 20.1 L  36.186  51.834 20.1  SYN 16 0.1                        1
 GAP= 85        0.18       0.5     0.6  1.1 -0.9686E-01 -0.2944E+00  0.2662E+00E
 STAT SP IPHASW D HRMN SECON CODA AMPLIT PERI AZIMU VELO AIN AR TRES W  DIS CAZ7
 R10      P   0 U 0002 24.18                             145    0.0010 11.2 1484
 R10      S   2   0002 27.20                             145    0.03 5 11.2 1484
 R14      P   0 D 0002 24.49                             137    0.0510 14.0  254
 R14      S   2   0002 27.54                             137   -0.10 5 14.0  254
 R9       P   0 U 0002 24.56                             134   -0.0310 15.3 2324
 R9       S   2   0002 28.00                             134    0.10 5 15.3 2324
 R13      P   0 D 0002 24.79                             129   -0.0310 17.5 3174
 R13      S   2   0002 28.38                             129    0.10 5 17.5 3174
 R11      S   2   0002 29.96                             114   -0.12 5 25.8 1124
 R15      P   0 U 0002 26.03                             113    0.0110 27.1  624
 R15      S   2   0002 30.39                             113    0.03 5 27.1  624
 R6       P   0 U 0002 26.64                             106   -0.1010 32.2 1694
 R6       S   2   0002 31.61                             106    0.00 5 32.2 1694
 R5       P   0 U 0002 26.95                             104   -0.0410 33.9 2014
 R5       S   2   0002 32.04                             104    0.01 5 33.9 2014
 R7       P   0 D 0002 27.88                             100    0.0710 39.7 1434
 R7       S   2   0002 33.44                             100   -0.03 5 39.7 1434
 R12      P   0 D 0002 28.26                              98   -0.0310 43.0 1034
 R12      S   2   0002 34.40                              98    0.11 5 43.0 1034
 R16      P   0 U 0002 28.42                              98    0.0110 43.8  734
 R16      S   2   0002 34.46                              98   -0.04 5 43.8  734
 R8       P   0 D 0002 29.70                              95    0.0010 52.6 1274
 R8       S   2   0002 36.65                              95   -0.09 5 52.6 1274
 R2       P   0 U 0002 29.93                              95    0.0010 54.2 1744
 R2       S   2   0002 37.28                              95    0.16 5 54.2 1744
 R1       P   0 U 0002 30.09                              95    0.0110 55.2 1934
 R1       S   2   0002 37.45                              95    0.05 5 55.2 1934
 R3       P   0 D 0002 30.58                              94   -0.06 9 59.0 1564
 R3       S   2   0002 38.44                              94    0.09 5 59.0 1564
 R4       P   0 D 0002 32.10                              93    0.09 9 68.3 1424
 R4       S   2   0002 40.69                              93   -0.04 4 68.3 1424
                                                                                
 2016  1 1 0002 40.0 L  35.923  51.938 10.2  SYN 13 0.1                        1
 GAP= 70        0.22       0.6     0.6  1.2 -0.5823E-01  0.8364E-01 -0.3965E+00E
 STAT SP IPHASW D HRMN SECON CODA AMPLIT PERI AZIMU VELO AIN AR TRES W  DIS CAZ7
 R6       P   0 U 0002 42.14                             154   -0.0910 4.26 2334
 R7       P   0 D 0002 43.66                             114    0.0810 14.8 1004
 R7       S   2   0002 46.09                             114   -0.09 5 14.8 1004
 R10      S   2   0002 47.75                             105    0.13 5 19.9 3504
 R5       P   0 U 0002 44.72                             103    0.0110 21.6 2634
 R5       S   2   0002 48.20                             103    0.08 5 21.6 2634
 R11      P   0 U 0002 45.24                             100    0.0510 24.5  374
 R2       S   2   0002 49.18                             100    0.10 5 25.0 1884
 R3       P   0 D 0002 45.92                              98    0.0110 28.7 1494
 R8       P   0 D 0002 46.56                              96   -0.0510 32.8  944
 R1       P   0 U 0002 46.60                              96    0.0010 32.8 2214
 R12      P   0 U 0002 47.48                              95   -0.0310 38.1  594
 R12      S   2   0002 53.02                              95    0.05 5 38.1  594
 R14      S   2   0002 53.89                              67   -0.17 5 42.0 3554
 R15      P   0 U 0002 48.50                              67    0.0010 44.3  194
 R15      S   2   0002 54.71                              67    0.03 5 44.3  194
 R13      P   0 D 0002 48.90                              67   -0.0410 47.0 3334
 R13      S   2   0002 55.50                              67    0.06 5 47.0 3334
                                                                                
